{"type":"FeatureCollection","features":[{"type":"Feature","properties":{"k":"runway","n":"08L/26R"},"geometry":{"type":"LineString","coordinates":[[13.26575,52.55765],[13.26794,52.55786],[13.27381,52.55844],[13.27489,52.55854],[13.27526,52.55858],[13.27575,52.55863],[13.28044,52.55907],[13.28113,52.55914],[13.28171,52.55921],[13.28563,52.55959],[13.29238,52.56025],[13.29321,52.56033],[13.29377,52.56038],[13.29393,52.5604],[13.29762,52.56076],[13.30303,52.56129],[13.30883,52.56186],[13.309,52.56187],[13.30955,52.56193],[13.30976,52.56195]]}},{"type":"Feature","properties":{"k":"taxiway","n":null},"geometry":{"type":"LineString","coordinates":[[13.26794,52.55786],[13.26746,52.55782],[13.26726,52.55781],[13.26709,52.55781],[13.26695,52.55783],[13.26676,52.55786],[13.26658,52.5579],[13.2664,52.55795],[13.26622,52.55803],[13.26607,52.5581],[13.26592,52.5582],[13.26579,52.5583],[13.2657,52.55839],[13.2656,52.55851],[13.26554,52.55862],[13.26546,52.55883],[13.26546,52.55907],[13.26554,52.55936],[13.26567,52.5596],[13.26576,52.55972],[13.26587,52.55984],[13.26598,52.55994],[13.26621,52.56011],[13.26639,52.56022],[13.26657,52.56031],[13.26681,52.56042],[13.26706,52.56051],[13.26735,52.56059],[13.2676,52.56064],[13.26816,52.5607],[13.27362,52.56124],[13.27525,52.56139],[13.27807,52.56167],[13.27969,52.56183],[13.28225,52.56207],[13.28712,52.56256],[13.28975,52.5628],[13.29212,52.56303]]}},{"type":"Feature","properties":{"k":"taxiway","n":null},"geometry":{"type":"LineString","coordinates":[[13.27728,52.5552],[13.27715,52.55519],[13.27705,52.5552],[13.27687,52.55521],[13.27669,52.55524],[13.27649,52.55528],[13.27637,52.55531],[13.27625,52.55535],[13.27613,52.55539],[13.27602,52.55544],[13.27594,52.55549],[13.27585,52.55554],[13.27576,52.5556],[13.27566,52.55567],[13.27551,52.55582],[13.27544,52.55591],[13.27537,52.55601],[13.27531,52.55616],[13.27529,52.55626],[13.27529,52.55645],[13.27531,52.55655],[13.27537,52.55671]]}},{"type":"Feature","properties":{"k":"taxiway","n":null},"geometry":{"type":"LineString","coordinates":[[13.27537,52.55671],[13.27545,52.55683],[13.27551,52.55692],[13.2756,52.55701],[13.27578,52.55714],[13.2759,52.55721],[13.27689,52.55771],[13.27799,52.55825],[13.27836,52.55841],[13.27876,52.55857],[13.27916,52.5587],[13.28044,52.55907]]}},{"type":"Feature","properties":{"k":"taxiway","n":null},"geometry":{"type":"LineString","coordinates":[[13.28071,52.56077],[13.28079,52.56048],[13.28093,52.55994],[13.28104,52.55954],[13.28113,52.55914]]}},{"type":"Feature","properties":{"k":"taxiway","n":null},"geometry":{"type":"LineString","coordinates":[[13.27969,52.56183],[13.27996,52.56182],[13.28015,52.56178],[13.28029,52.56171],[13.28045,52.56161],[13.28051,52.56153],[13.28071,52.56077]]}},{"type":"Feature","properties":{"k":"taxiway","n":null},"geometry":{"type":"LineString","coordinates":[[13.28071,52.56077],[13.28072,52.56105],[13.28083,52.56133],[13.28105,52.56157],[13.28137,52.56178],[13.28165,52.56193],[13.28225,52.56207]]}},{"type":"Feature","properties":{"k":"taxiway","n":null},"geometry":{"type":"LineString","coordinates":[[13.28662,52.55393],[13.28656,52.55403],[13.28659,52.55414],[13.28687,52.55458],[13.28697,52.55474],[13.28715,52.55504],[13.28748,52.55556],[13.28756,52.55569],[13.28772,52.55595],[13.28786,52.5561],[13.288,52.55618],[13.28815,52.55623],[13.28825,52.55626],[13.28831,52.55628]]}},{"type":"Feature","properties":{"k":"apron","n":null},"geometry":{"type":"Polygon","coordinates":[[[13.29067,52.55101],[13.28742,52.55345],[13.28657,52.55409],[13.28637,52.55425],[13.28748,52.55613],[13.288,52.55618],[13.30072,52.55744],[13.29837,52.55383],[13.29798,52.55324],[13.29785,52.55339],[13.29763,52.55344],[13.29752,52.55326],[13.29679,52.55376],[13.29825,52.55616],[13.29822,52.55628],[13.29811,52.55632],[13.29421,52.55594],[13.29413,52.55592],[13.29346,52.5548],[13.29286,52.55475],[13.29231,52.5547],[13.29219,52.55471],[13.29202,52.55481],[13.2912,52.55542],[13.29107,52.55548],[13.29096,52.5555],[13.29086,52.5555],[13.28931,52.55535],[13.2892,52.55532],[13.28909,52.55527],[13.2885,52.55437],[13.28847,52.55428],[13.28848,52.55419],[13.28873,52.55398],[13.28933,52.55351],[13.2895,52.55339],[13.2896,52.55334],[13.28972,52.5533],[13.28986,52.5533],[13.29034,52.55334],[13.29095,52.5534],[13.29105,52.55341],[13.29115,52.55341],[13.29128,52.5534],[13.2914,52.55337],[13.29151,52.55332],[13.2916,52.55325],[13.29167,52.55314],[13.29168,52.55303],[13.29121,52.55224],[13.29121,52.55211],[13.29153,52.55187],[13.29165,52.55178],[13.2913,52.5513],[13.29136,52.55103],[13.29096,52.55101],[13.29067,52.55101]]]}},{"type":"Feature","properties":{"k":"taxiway","n":null},"geometry":{"type":"LineString","coordinates":[[13.28712,52.56256],[13.28539,52.5612],[13.2853,52.56109],[13.28528,52.56098],[13.28563,52.55959],[13.28608,52.55776]]}},{"type":"Feature","properties":{"k":"apron","n":null},"geometry":{"type":"Polygon","coordinates":[[[13.29805,52.56456],[13.2982,52.56401],[13.29197,52.5634],[13.29161,52.5631],[13.28964,52.56292],[13.28941,52.56379],[13.29481,52.56432],[13.29484,52.56424],[13.29805,52.56456]]]}},{"type":"Feature","properties":{"k":"apron","n":null},"geometry":{"type":"Polygon","coordinates":[[[13.28883,52.55075],[13.28867,52.5508],[13.28856,52.55087],[13.28644,52.55246],[13.28635,52.55259],[13.28628,52.55268],[13.28565,52.55315],[13.28553,52.55324],[13.28543,52.55341],[13.28535,52.55351],[13.28371,52.55475],[13.28129,52.55452],[13.28121,52.55456],[13.28109,52.55502],[13.28101,52.55507],[13.28093,52.55506],[13.2809,52.5552],[13.28382,52.55548],[13.29013,52.55076],[13.29026,52.55069],[13.29036,52.55066],[13.2906,52.5506],[13.29073,52.55059],[13.29082,52.55058],[13.29093,52.55058],[13.29106,52.55058],[13.29122,52.55055],[13.29054,52.55048],[13.29039,52.55047],[13.29029,52.55048],[13.28883,52.55075]]]}},{"type":"Feature","properties":{"k":"apron","n":null},"geometry":{"type":"Polygon","coordinates":[[[13.27671,52.55478],[13.2801,52.55511],[13.28024,52.55461],[13.27797,52.55431],[13.27808,52.55389],[13.27739,52.55383],[13.27727,52.55382],[13.27694,52.55328],[13.27624,52.55344],[13.27651,52.55387],[13.27679,52.55431],[13.27678,52.55452],[13.27671,52.55478]]]}},{"type":"Feature","properties":{"k":"taxiway","n":null},"geometry":{"type":"LineString","coordinates":[[13.28088,52.55555],[13.28078,52.55553],[13.28066,52.55549],[13.28055,52.55543],[13.28047,52.55537],[13.28037,52.55522],[13.28042,52.55496],[13.28061,52.55431],[13.28068,52.55401]]}},{"type":"Feature","properties":{"k":"apron","n":null},"geometry":{"type":"Polygon","coordinates":[[[13.3015,52.56471],[13.30406,52.56494],[13.30423,52.56432],[13.30167,52.56408],[13.3015,52.56471]]]}},{"type":"Feature","properties":{"k":"airport","n":"Flughafen Berlin-Tegel Otto Lilienthal"},"geometry":{"type":"Polygon","coordinates":[[[13.29799,52.55107],[13.29798,52.55118],[13.29922,52.55318],[13.30018,52.55469],[13.30067,52.55546],[13.30128,52.55648],[13.30212,52.55696],[13.30695,52.55795],[13.30867,52.55829],[13.30973,52.5585],[13.31005,52.55859],[13.31051,52.55878],[13.31083,52.55885],[13.31293,52.5593],[13.31727,52.56023],[13.31756,52.56031],[13.31786,52.56043],[13.31806,52.56054],[13.31828,52.56069],[13.31866,52.56099],[13.3188,52.5612],[13.31883,52.56137],[13.31884,52.56153],[13.31878,52.56177],[13.31872,52.56202],[13.31859,52.56243],[13.31848,52.56259],[13.31824,52.56277],[13.31804,52.56287],[13.31768,52.56297],[13.31354,52.56409],[13.30898,52.56484],[13.30727,52.56539],[13.30689,52.56478],[13.3042,52.56449],[13.30425,52.5643],[13.30171,52.56404],[13.30148,52.56402],[13.29848,52.56373],[13.29009,52.56294],[13.28964,52.5629],[13.27877,52.56221],[13.2751,52.56198],[13.2749,52.56269],[13.2732,52.56257],[13.27271,52.56188],[13.268,52.56141],[13.26455,52.56026],[13.25747,52.55792],[13.25731,52.55777],[13.25648,52.55697],[13.25647,52.55682],[13.25712,52.55423],[13.25812,52.55439],[13.25853,52.55423],[13.26115,52.55461],[13.26182,52.55463],[13.26215,52.55437],[13.26255,52.55441],[13.26281,52.55452],[13.26311,52.55452],[13.26357,52.55482],[13.2641,52.55489],[13.26456,52.5547],[13.26451,52.55443],[13.26505,52.55449],[13.26536,52.55453],[13.26908,52.5539],[13.2693,52.55388],[13.26958,52.55391],[13.26992,52.55394],[13.27152,52.55409],[13.27337,52.55427],[13.27374,52.55413],[13.27414,52.55317],[13.27497,52.55287],[13.27853,52.55226],[13.27981,52.55205],[13.28177,52.55171],[13.28249,52.55183],[13.28256,52.55167],[13.28266,52.55155],[13.28571,52.551],[13.28666,52.55107],[13.28944,52.55057],[13.29011,52.55044],[13.29035,52.55035],[13.29045,52.55026],[13.29052,52.55016],[13.29058,52.55003],[13.29063,52.54977],[13.29072,52.54967],[13.29083,52.5496],[13.29097,52.54956],[13.29117,52.54953],[13.29239,52.54965],[13.29231,52.5498],[13.29344,52.5499],[13.29355,52.55],[13.29346,52.55036],[13.29352,52.55056],[13.29359,52.55064],[13.29381,52.55074],[13.29627,52.55098],[13.29643,52.55093],[13.2966,52.55083],[13.2968,52.55062],[13.29784,52.55071],[13.29775,52.55104],[13.29792,52.55106],[13.29799,52.55107]]]}},{"type":"Feature","properties":{"k":"taxiway","n":null},"geometry":{"type":"LineString","coordinates":[[13.27263,52.55474],[13.27728,52.5552],[13.27745,52.55521],[13.27752,52.55522]]}},{"type":"Feature","properties":{"k":"taxiway","n":null},"geometry":{"type":"LineString","coordinates":[[13.31017,52.55954],[13.31013,52.55969],[13.31002,52.5601],[13.30992,52.56049],[13.30981,52.56089],[13.30971,52.56126],[13.30955,52.56193]]}},{"type":"Feature","properties":{"k":"taxiway","n":null},"geometry":{"type":"LineString","coordinates":[[13.27807,52.56167],[13.27781,52.56163],[13.27766,52.5616],[13.27749,52.56156],[13.27726,52.5615],[13.27686,52.56137],[13.27651,52.56121],[13.27633,52.56112],[13.27601,52.56092],[13.27569,52.56067],[13.27544,52.56043],[13.27525,52.56013],[13.27517,52.55995],[13.27509,52.55967],[13.27507,52.55938],[13.27508,52.55926],[13.2751,52.55914],[13.27526,52.55858]]}},{"type":"Feature","properties":{"k":"runway","n":"08R/26L"},"geometry":{"type":"LineString","coordinates":[[13.27651,52.55682],[13.28099,52.55726],[13.28162,52.55732],[13.28239,52.5574],[13.28608,52.55776],[13.2885,52.558],[13.29302,52.55844],[13.29366,52.5585],[13.29454,52.55859],[13.30038,52.55916],[13.30099,52.55922],[13.3092,52.56002],[13.31002,52.5601],[13.3102,52.56012]]}},{"type":"Feature","properties":{"k":"taxiway","n":null},"geometry":{"type":"LineString","coordinates":[[13.29393,52.5604],[13.29441,52.56042],[13.29486,52.56044],[13.29517,52.56044],[13.29545,52.56043],[13.29572,52.56043],[13.29617,52.5604],[13.29658,52.56036],[13.29692,52.56032],[13.29728,52.56026],[13.29765,52.5602],[13.29799,52.56012],[13.299,52.55989],[13.29999,52.55966],[13.30019,52.55961],[13.30032,52.55957],[13.30047,52.55952],[13.30061,52.55946],[13.3008,52.55936],[13.30092,52.55928],[13.30114,52.55907],[13.30122,52.55897],[13.30127,52.55888],[13.30132,52.55874],[13.30134,52.5586],[13.30133,52.55842],[13.30131,52.5583],[13.30124,52.55815],[13.30084,52.55752]]}},{"type":"Feature","properties":{"k":"taxiway","n":null},"geometry":{"type":"LineString","coordinates":[[13.30225,52.56402],[13.30427,52.56422],[13.30658,52.56444],[13.30672,52.56444],[13.30684,52.56442],[13.30693,52.5644],[13.30707,52.56435],[13.30879,52.56364],[13.30897,52.56355],[13.30909,52.56347],[13.30915,52.56338],[13.30919,52.56329],[13.30933,52.56274],[13.30955,52.56193]]}},{"type":"Feature","properties":{"k":"taxiway","n":null},"geometry":{"type":"LineString","coordinates":[[13.29212,52.56303],[13.29252,52.56307],[13.29311,52.56313],[13.30225,52.56402]]}},{"type":"Feature","properties":{"k":"taxiway","n":null},"geometry":{"type":"LineString","coordinates":[[13.28113,52.55914],[13.28122,52.55885],[13.28132,52.55848],[13.28145,52.55797],[13.28152,52.55771],[13.28162,52.55732]]}},{"type":"Feature","properties":{"k":"taxiway","n":null},"geometry":{"type":"LineString","coordinates":[[13.28162,52.55732],[13.28173,52.5569],[13.28186,52.55643],[13.28196,52.55603],[13.28207,52.55567]]}},{"type":"Feature","properties":{"k":"taxiway","n":null},"geometry":{"type":"LineString","coordinates":[[13.27526,52.55858],[13.27567,52.55706],[13.27578,52.55692],[13.27587,52.55687],[13.27599,52.55683],[13.27615,52.55681],[13.27633,52.5568]]}},{"type":"Feature","properties":{"k":"taxiway","n":null},"geometry":{"type":"LineString","coordinates":[[13.29252,52.56307],[13.29287,52.56167],[13.29301,52.56115],[13.29321,52.56033]]}},{"type":"Feature","properties":{"k":"taxiway","n":null},"geometry":{"type":"LineString","coordinates":[[13.29321,52.56033],[13.29338,52.55966],[13.2935,52.55918],[13.29366,52.5585]]}},{"type":"Feature","properties":{"k":"taxiway","n":null},"geometry":{"type":"LineString","coordinates":[[13.27263,52.55474],[13.27226,52.55471],[13.27185,52.55469],[13.27135,52.55466],[13.27091,52.55465],[13.27065,52.55465],[13.27006,52.55466],[13.26968,52.55465],[13.26847,52.55466],[13.26799,52.55466],[13.26777,52.55467],[13.26759,52.55469],[13.26736,52.55472],[13.26715,52.55477],[13.26694,52.55482],[13.26678,52.55488],[13.2666,52.55494],[13.26643,52.55502],[13.26626,52.55511],[13.26613,52.5552],[13.266,52.5553],[13.26587,52.55542],[13.26575,52.55555],[13.26566,52.55568],[13.26558,52.55582],[13.26553,52.55596],[13.26549,52.55611],[13.26548,52.55623],[13.26549,52.55636],[13.26552,52.55652],[13.26556,52.55664],[13.26563,52.55677],[13.26571,52.55691],[13.26582,52.55703],[13.26595,52.55716],[13.26611,52.55729],[13.26625,52.55739],[13.26645,52.5575],[13.26667,52.55759],[13.26689,52.55767],[13.2671,52.55773],[13.26725,52.55777],[13.26748,52.5578],[13.26794,52.55786]]}},{"type":"Feature","properties":{"k":"taxiway","n":null},"geometry":{"type":"LineString","coordinates":[[13.27752,52.55522],[13.27804,52.55527],[13.2787,52.55534],[13.27936,52.5554],[13.27993,52.55546],[13.28004,52.55547],[13.28088,52.55555],[13.28124,52.55558],[13.28143,52.5556],[13.28157,52.55562],[13.28207,52.55567],[13.28219,52.55568],[13.28273,52.55573],[13.28296,52.55575],[13.28373,52.55583],[13.28527,52.55598],[13.2867,52.55612],[13.28758,52.5562],[13.28831,52.55628],[13.28882,52.55633],[13.28971,52.55641],[13.29055,52.5565],[13.29069,52.55651],[13.2918,52.55662],[13.29245,52.55668],[13.29282,52.55672],[13.29315,52.55675],[13.29337,52.55677],[13.29362,52.5568],[13.29408,52.55684],[13.29475,52.55691],[13.29484,52.55692],[13.29561,52.55699],[13.29637,52.55707],[13.29713,52.55714],[13.29788,52.55722],[13.29862,52.55729],[13.2994,52.55737],[13.29971,52.5574],[13.3,52.55743],[13.30084,52.55752]]}},{"type":"Feature","properties":{"k":"taxiway","n":null},"geometry":{"type":"LineString","coordinates":[[13.30084,52.55752],[13.30119,52.55755],[13.30226,52.55765],[13.30281,52.5577],[13.30323,52.55775],[13.30369,52.55781],[13.30411,52.55788],[13.30452,52.55795],[13.30651,52.55834],[13.30939,52.55889],[13.30955,52.55892],[13.30964,52.55894],[13.30975,52.55897],[13.30986,52.55903],[13.31002,52.55914],[13.31011,52.55924],[13.31016,52.55934],[13.31018,52.55948],[13.31017,52.55954]]}},{"type":"Feature","properties":{"k":"taxiway","n":null},"geometry":{"type":"LineString","coordinates":[[13.28196,52.55603],[13.28195,52.5559],[13.28188,52.55577],[13.28174,52.55567],[13.28157,52.55562]]}},{"type":"Feature","properties":{"k":"taxiway","n":null},"geometry":{"type":"LineString","coordinates":[[13.28196,52.55603],[13.28206,52.55591],[13.2822,52.55583],[13.28228,52.5558],[13.28238,52.55577],[13.28247,52.55575],[13.28258,52.55574],[13.28273,52.55573]]}},{"type":"Feature","properties":{"k":"taxiway","n":null},"geometry":{"type":"LineString","coordinates":[[13.29366,52.5585],[13.29389,52.55769],[13.29413,52.55685]]}},{"type":"Feature","properties":{"k":"taxiway","n":null},"geometry":{"type":"LineString","coordinates":[[13.30084,52.55752],[13.30074,52.55735],[13.30053,52.55701],[13.30043,52.55686],[13.30024,52.55656],[13.2999,52.556],[13.29982,52.55588],[13.29963,52.55557],[13.29936,52.55514],[13.29909,52.55471],[13.29883,52.5543],[13.29857,52.55389],[13.2985,52.55377],[13.29822,52.55333],[13.29721,52.55171],[13.29713,52.55163],[13.29702,52.55156],[13.29686,52.55151],[13.29672,52.55149],[13.29478,52.5513]]}},{"type":"Feature","properties":{"k":"runway","n":"08R/26L"},"geometry":{"type":"LineString","coordinates":[[13.27503,52.55668],[13.27537,52.55671],[13.27597,52.55677],[13.27633,52.5568],[13.27651,52.55682]]}},{"type":"Feature","properties":{"k":"runway","n":null},"geometry":{"type":"LineString","coordinates":[[13.30976,52.56195],[13.31077,52.56204]]}},{"type":"Feature","properties":{"k":"runway","n":"08R/26L"},"geometry":{"type":"LineString","coordinates":[[13.27434,52.5566],[13.27455,52.55663],[13.27503,52.55668]]}},{"type":"Feature","properties":{"k":"park","n":"Landschaftspark"},"geometry":{"type":"Polygon","coordinates":[[[13.30216,52.56417],[13.30947,52.56487],[13.30982,52.5653],[13.3108,52.56504],[13.31067,52.56375],[13.31189,52.55908],[13.31196,52.55894],[13.31074,52.55868],[13.31051,52.55862],[13.3102,52.55853],[13.31008,52.55858],[13.30987,52.55863],[13.30966,52.55865],[13.30889,52.56154],[13.30305,52.56097],[13.30216,52.56417]]]}},{"type":"Feature","properties":{"k":"taxiway","n":null},"geometry":{"type":"LineString","coordinates":[[13.29415,52.55122],[13.29103,52.55092],[13.29093,52.55092],[13.29083,52.55092],[13.29073,52.55094],[13.2906,52.55098],[13.29031,52.55117],[13.29006,52.55136],[13.28997,52.55143],[13.2898,52.55155],[13.28954,52.55175],[13.28931,52.55192],[13.289,52.55216],[13.28881,52.55229],[13.28869,52.55239],[13.28849,52.55253],[13.28833,52.55266],[13.2879,52.55298],[13.28747,52.5533],[13.28733,52.55341],[13.28712,52.55356],[13.2868,52.5538],[13.28662,52.55393],[13.28647,52.55405],[13.28633,52.55415],[13.28575,52.55459],[13.28563,52.55468],[13.28514,52.55505],[13.28483,52.55528],[13.28464,52.55542],[13.28426,52.5557],[13.28413,52.55577],[13.28404,52.55579],[13.28393,52.55582],[13.28383,52.55583],[13.28373,52.55583]]}},{"type":"Feature","properties":{"k":"road","n":null},"geometry":{"type":"LineString","coordinates":[[13.30378,52.53475],[13.30707,52.5352],[13.31187,52.53589],[13.31707,52.53663],[13.31788,52.53674]]}},{"type":"Feature","properties":{"k":"road","n":null},"geometry":{"type":"LineString","coordinates":[[13.32911,52.53912],[13.32794,52.53877],[13.32709,52.53852],[13.32661,52.5384],[13.3264,52.53834]]}},{"type":"Feature","properties":{"k":"road","n":null},"geometry":{"type":"LineString","coordinates":[[13.30958,52.56629],[13.30861,52.56655],[13.30818,52.56667],[13.30788,52.56676],[13.30763,52.56686],[13.30745,52.56694],[13.30726,52.56703],[13.30706,52.56716],[13.30685,52.56731]]}},{"type":"Feature","properties":{"k":"road","n":null},"geometry":{"type":"LineString","coordinates":[[13.29993,52.54738],[13.29962,52.547],[13.29929,52.54659],[13.29866,52.54581],[13.29834,52.5454],[13.29798,52.54493],[13.29764,52.54443],[13.29728,52.54386]]}},{"type":"Feature","properties":{"k":"road","n":null},"geometry":{"type":"LineString","coordinates":[[13.30563,52.57217],[13.30558,52.57241],[13.30548,52.57273],[13.3054,52.57293],[13.30531,52.57311],[13.30515,52.57336],[13.30502,52.57356],[13.30465,52.57401]]}},{"type":"Feature","properties":{"k":"road","n":null},"geometry":{"type":"LineString","coordinates":[[13.29895,52.5459],[13.29948,52.54652]]}},{"type":"Feature","properties":{"k":"road","n":null},"geometry":{"type":"LineString","coordinates":[[13.2932,52.53619],[13.29282,52.53549]]}},{"type":"Feature","properties":{"k":"road","n":null},"geometry":{"type":"LineString","coordinates":[[13.29336,52.53615],[13.29348,52.53639]]}},{"type":"Feature","properties":{"k":"road","n":null},"geometry":{"type":"LineString","coordinates":[[13.3005,52.54781],[13.30096,52.54836]]}},{"type":"Feature","properties":{"k":"road","n":null},"geometry":{"type":"LineString","coordinates":[[13.30104,52.54875],[13.30028,52.54782]]}},{"type":"Feature","properties":{"k":"road","n":null},"geometry":{"type":"LineString","coordinates":[[13.30961,52.5652],[13.30974,52.56507],[13.30986,52.56492],[13.31,52.56464],[13.31004,52.56453]]}},{"type":"Feature","properties":{"k":"road","n":null},"geometry":{"type":"LineString","coordinates":[[13.30914,52.55768],[13.30811,52.5566],[13.30748,52.55595],[13.30682,52.55528],[13.30603,52.55443]]}},{"type":"Feature","properties":{"k":"road","n":null},"geometry":{"type":"LineString","coordinates":[[13.30966,52.55804],[13.31015,52.55857],[13.31037,52.55885],[13.3106,52.55918],[13.31073,52.55941],[13.31082,52.5596],[13.311,52.56004],[13.31107,52.56034],[13.3111,52.5606],[13.3111,52.5609],[13.31099,52.56179],[13.31091,52.56211]]}},{"type":"Feature","properties":{"k":"road","n":null},"geometry":{"type":"LineString","coordinates":[[13.30126,52.54874],[13.30154,52.54909],[13.30247,52.55023]]}},{"type":"Feature","properties":{"k":"water","n":"Plötzensee"},"geometry":{"type":"Polygon","coordinates":[[[13.3264,52.54691],[13.32653,52.54692],[13.32663,52.54692],[13.32674,52.54691],[13.32685,52.54687],[13.32693,52.54684],[13.32729,52.54666],[13.32742,52.54658],[13.32754,52.54654],[13.32765,52.54651],[13.32773,52.54639],[13.32794,52.54623],[13.32811,52.54613],[13.32821,52.54607],[13.32837,52.54594],[13.32843,52.54583],[13.32857,52.54573],[13.32872,52.54567],[13.32891,52.5455],[13.32903,52.54544],[13.32914,52.54533],[13.32929,52.54528],[13.32946,52.5452],[13.32986,52.54495],[13.32994,52.54488],[13.33003,52.54483],[13.33022,52.54479],[13.33033,52.54476],[13.33059,52.54468],[13.33086,52.54461],[13.33107,52.54447],[13.33121,52.54433],[13.33131,52.54421],[13.33141,52.54407],[13.3315,52.54396],[13.3316,52.54392],[13.33188,52.54384],[13.33192,52.54376],[13.33195,52.54366],[13.33209,52.54345],[13.33217,52.54336],[13.33229,52.54328],[13.33239,52.54321],[13.33254,52.54308],[13.33258,52.54299],[13.33259,52.54291],[13.33273,52.54281],[13.33275,52.54272],[13.33295,52.54258],[13.33305,52.54245],[13.33315,52.54242],[13.33327,52.54233],[13.33324,52.54223],[13.33321,52.54215],[13.33332,52.54207],[13.33335,52.54199],[13.33346,52.54192],[13.33354,52.54177],[13.33344,52.5417],[13.33325,52.54167],[13.33303,52.54164],[13.33281,52.54164],[13.33256,52.54164],[13.33238,52.54164],[13.33227,52.54166],[13.33218,52.5417],[13.33195,52.5418],[13.3318,52.54189],[13.33161,52.542],[13.3315,52.54209],[13.33142,52.54215],[13.33132,52.54225],[13.33122,52.54229],[13.33112,52.54236],[13.33104,52.5424],[13.33095,52.54248],[13.33082,52.54263],[13.33074,52.54272],[13.33062,52.54279],[13.33028,52.54307],[13.33009,52.54323],[13.3299,52.54333],[13.32976,52.54346],[13.32958,52.54357],[13.32941,52.5437],[13.32876,52.54419],[13.3286,52.5443],[13.3285,52.54438],[13.32842,52.54446],[13.32837,52.54455],[13.32819,52.54465],[13.32807,52.54475],[13.32799,52.54479],[13.32784,52.54494],[13.32776,52.54499],[13.32771,52.54507],[13.32741,52.54528],[13.32725,52.54536],[13.32714,52.54542],[13.32702,52.54556],[13.32698,52.54583],[13.32689,52.54597],[13.32666,52.54619],[13.32635,52.54638],[13.32619,52.54655],[13.32614,52.54667],[13.32618,52.54679],[13.32633,52.54688],[13.3264,52.54691]]]}},{"type":"Feature","properties":{"k":"road","n":null},"geometry":{"type":"LineString","coordinates":[[13.2979,52.57766],[13.29824,52.57743],[13.29865,52.57719],[13.29904,52.57698],[13.29964,52.57667],[13.30111,52.57598]]}},{"type":"Feature","properties":{"k":"road","n":null},"geometry":{"type":"LineString","coordinates":[[13.30532,52.57264],[13.30536,52.5725],[13.30542,52.57229],[13.30546,52.57206],[13.3055,52.57182],[13.30552,52.57163],[13.30552,52.57149]]}},{"type":"Feature","properties":{"k":"road","n":null},"geometry":{"type":"LineString","coordinates":[[13.29739,52.57819],[13.29716,52.57839],[13.29687,52.57868],[13.29666,52.57892],[13.29647,52.57916],[13.29615,52.57964]]}},{"type":"Feature","properties":{"k":"road","n":null},"geometry":{"type":"LineString","coordinates":[[13.29801,52.57772],[13.29769,52.57796],[13.29739,52.57819]]}},{"type":"Feature","properties":{"k":"road","n":null},"geometry":{"type":"LineString","coordinates":[[13.2944,52.58192],[13.29552,52.58023]]}},{"type":"Feature","properties":{"k":"road","n":null},"geometry":{"type":"LineString","coordinates":[[13.29727,52.57814],[13.29758,52.5779],[13.2979,52.57766]]}},{"type":"Feature","properties":{"k":"road","n":null},"geometry":{"type":"LineString","coordinates":[[13.29378,52.58305],[13.29261,52.58476],[13.29149,52.58646]]}},{"type":"Feature","properties":{"k":"road","n":null},"geometry":{"type":"LineString","coordinates":[[13.29465,52.58178],[13.29378,52.58305]]}},{"type":"Feature","properties":{"k":"road","n":null},"geometry":{"type":"LineString","coordinates":[[13.29355,52.58317],[13.2944,52.58192]]}},{"type":"Feature","properties":{"k":"road","n":null},"geometry":{"type":"LineString","coordinates":[[13.29134,52.58643],[13.29355,52.58317]]}},{"type":"Feature","properties":{"k":"road","n":null},"geometry":{"type":"LineString","coordinates":[[13.29149,52.58646],[13.28725,52.59259]]}},{"type":"Feature","properties":{"k":"water","n":"Möwensee"},"geometry":{"type":"Polygon","coordinates":[[[13.33362,52.55356],[13.33354,52.55361],[13.33332,52.55377],[13.33321,52.55389],[13.33284,52.55419],[13.33272,52.55427],[13.33261,52.55435],[13.33246,52.55443],[13.33213,52.55461],[13.33203,52.55473],[13.33212,52.5548],[13.33222,52.55482],[13.3323,52.55487],[13.3324,52.55484],[13.33248,52.55487],[13.33257,52.55484],[13.33273,52.55476],[13.33284,52.55467],[13.33301,52.55454],[13.33311,52.55447],[13.33328,52.55435],[13.3334,52.55427],[13.33359,52.55419],[13.33391,52.55402],[13.33401,52.55395],[13.3341,52.5539],[13.33422,52.55382],[13.33458,52.5535],[13.33485,52.55334],[13.33498,52.55327],[13.33509,52.55318],[13.33529,52.55304],[13.33559,52.55286],[13.33567,52.55286],[13.33575,52.5528],[13.33577,52.5527],[13.33561,52.55265],[13.33545,52.55268],[13.33536,52.5527],[13.33524,52.55277],[13.33508,52.55283],[13.33497,52.55287],[13.33486,52.55289],[13.3347,52.55299],[13.33457,52.55309],[13.33444,52.55317],[13.33407,52.55333],[13.33384,52.55345],[13.33371,52.55352],[13.33362,52.55356]]]}},{"type":"Feature","properties":{"k":"water","n":"Entenpfuhl"},"geometry":{"type":"Polygon","coordinates":[[[13.33076,52.55581],[13.3308,52.55571],[13.33088,52.55567],[13.33075,52.55562],[13.33062,52.55566],[13.33052,52.55568],[13.33041,52.55571],[13.33029,52.55577],[13.33021,52.5559],[13.3301,52.556],[13.32995,52.55603],[13.32985,52.55607],[13.32973,52.55611],[13.32964,52.55617],[13.32962,52.55627],[13.32983,52.55623],[13.33002,52.55618],[13.33023,52.5561],[13.33041,52.55604],[13.33052,52.55601],[13.3306,52.55598],[13.33071,52.55591],[13.33076,52.55581]]]}},{"type":"Feature","properties":{"k":"water","n":"Sperlingsee"},"geometry":{"type":"Polygon","coordinates":[[[13.3317,52.55501],[13.33157,52.55493],[13.33147,52.55491],[13.33121,52.55497],[13.33113,52.55501],[13.33105,52.55512],[13.33099,52.55528],[13.33098,52.55541],[13.33096,52.55553],[13.33092,52.55562],[13.33102,52.55567],[13.33112,52.55564],[13.33125,52.55557],[13.33167,52.55532],[13.33164,52.55518],[13.33176,52.5551],[13.3317,52.55501]]]}},{"type":"Feature","properties":{"k":"water","n":"Borsighafen"},"geometry":{"type":"Polygon","coordinates":[[[13.27473,52.58153],[13.27477,52.58178],[13.27502,52.58176],[13.27516,52.58179],[13.27536,52.58191],[13.27541,52.58206],[13.27544,52.58221],[13.27551,52.58232],[13.27561,52.58259],[13.27572,52.58271],[13.27592,52.58319],[13.27603,52.58348],[13.27611,52.58367],[13.27621,52.58377],[13.27606,52.58384],[13.27617,52.58412],[13.27623,52.5842],[13.27634,52.58421],[13.27645,52.58417],[13.27667,52.58402],[13.27675,52.58397],[13.27675,52.58389],[13.27684,52.58384],[13.27695,52.5838],[13.27741,52.58265],[13.27738,52.58249],[13.27728,52.58198],[13.27719,52.58193],[13.27718,52.58183],[13.27726,52.58183],[13.27724,52.58159],[13.27703,52.58158],[13.2768,52.58125],[13.27657,52.58092],[13.27623,52.58027],[13.27603,52.57982],[13.27598,52.57972],[13.27589,52.57957],[13.27584,52.57947],[13.27555,52.57944],[13.27537,52.57975],[13.27528,52.58013],[13.27525,52.5803],[13.27525,52.58051],[13.27525,52.58074],[13.27524,52.58089],[13.27523,52.58103],[13.27524,52.58132],[13.2752,52.58144],[13.27511,52.5815],[13.27498,52.58152],[13.27473,52.58153]]]}},{"type":"Feature","properties":{"k":"water","n":"Seidelbecken"},"geometry":{"type":"Polygon","coordinates":[[[13.30739,52.56854],[13.3073,52.56856],[13.3072,52.56863],[13.30717,52.56875],[13.30716,52.56887],[13.30722,52.56897],[13.30736,52.56907],[13.30746,52.56911],[13.30764,52.56915],[13.30774,52.56914],[13.30774,52.56905],[13.30766,52.56897],[13.30763,52.56887],[13.30754,52.56876],[13.30747,52.56867],[13.30744,52.56857],[13.30739,52.56854]]]}},{"type":"Feature","properties":{"k":"water","n":"Kleine Malche"},"geometry":{"type":"Polygon","coordinates":[[[13.23607,52.56021],[13.23622,52.56018],[13.23639,52.56012],[13.23648,52.56007],[13.23729,52.55969],[13.2378,52.55941],[13.23803,52.55926],[13.23805,52.55904],[13.2379,52.55887],[13.23743,52.55865],[13.23698,52.55862],[13.23617,52.55869],[13.23578,52.55889],[13.23528,52.55898],[13.23489,52.55914],[13.23454,52.55933],[13.23445,52.55945],[13.23435,52.55957],[13.23419,52.55977],[13.2341,52.55991],[13.23401,52.56012],[13.2339,52.56041],[13.23363,52.56074],[13.23353,52.56085],[13.23338,52.56102],[13.23332,52.56124],[13.23449,52.56075],[13.23512,52.56054],[13.23607,52.56021]]]}},{"type":"Feature","properties":{"k":"water","n":"Havel"},"geometry":{"type":"Polygon","coordinates":[[[13.22596,52.56825],[13.22515,52.56885],[13.22458,52.56908],[13.2243,52.56922],[13.22414,52.56927],[13.22384,52.56938],[13.22374,52.56939],[13.2236,52.56956],[13.22344,52.5697],[13.2234,52.56989],[13.22325,52.57014],[13.22312,52.57044],[13.22305,52.57055],[13.22296,52.57065],[13.22281,52.57069],[13.22273,52.5707],[13.22242,52.5707],[13.22225,52.57079],[13.2221,52.57086],[13.22177,52.5711],[13.22159,52.57135],[13.22144,52.57153],[13.2214,52.57194],[13.22154,52.5722],[13.22186,52.57248],[13.22269,52.57266],[13.2239,52.57282],[13.22403,52.57288],[13.22613,52.57327],[13.22636,52.57302],[13.22657,52.57278],[13.22667,52.57269],[13.2268,52.57257],[13.22697,52.5724],[13.22707,52.57231],[13.22716,52.57223],[13.22729,52.57211],[13.22741,52.57198],[13.22753,52.57183],[13.22837,52.5708],[13.22844,52.57069],[13.22842,52.57059],[13.22848,52.57049],[13.22851,52.57024],[13.22842,52.57024],[13.22843,52.56988],[13.22837,52.56962],[13.22832,52.56945],[13.22834,52.5693],[13.22825,52.56911],[13.22815,52.56892],[13.22806,52.56875],[13.22795,52.56845],[13.2279,52.56834],[13.22786,52.56824],[13.22781,52.56815],[13.22617,52.56773],[13.22609,52.56776],[13.22603,52.5679],[13.22596,52.56808],[13.22596,52.56825]]]}},{"type":"Feature","properties":{"k":"water","n":"Sickerbecken 3"},"geometry":{"type":"Polygon","coordinates":[[[13.24976,52.55903],[13.25095,52.55842],[13.25036,52.55777],[13.24925,52.55832],[13.24928,52.55851],[13.24934,52.55866],[13.24941,52.55876],[13.24976,52.55903]]]}},{"type":"Feature","properties":{"k":"water","n":"Sickerbecken 2"},"geometry":{"type":"Polygon","coordinates":[[[13.24761,52.55774],[13.24831,52.55643],[13.24759,52.55629],[13.24697,52.55746],[13.24716,52.55765],[13.24761,52.55774]]]}},{"type":"Feature","properties":{"k":"water","n":"Sickerbecken 1"},"geometry":{"type":"Polygon","coordinates":[[[13.24684,52.5592],[13.24757,52.55782],[13.24712,52.55773],[13.24678,52.55782],[13.24612,52.55906],[13.24684,52.5592]]]}},{"type":"Feature","properties":{"k":"water","n":"Tegeler Hafen"},"geometry":{"type":"Polygon","coordinates":[[[13.2793,52.59334],[13.27946,52.59343],[13.27955,52.59351],[13.27962,52.59363],[13.27978,52.59359],[13.27959,52.59334],[13.27939,52.59312],[13.27933,52.59302],[13.27916,52.59279],[13.279,52.59257],[13.27876,52.59232],[13.27839,52.59197],[13.27846,52.59187],[13.27867,52.5916],[13.27923,52.59179],[13.27937,52.59159],[13.27917,52.59138],[13.27903,52.59138],[13.27895,52.59137],[13.27878,52.59133],[13.27867,52.59134],[13.27856,52.59137],[13.27815,52.59127],[13.27805,52.59129],[13.27751,52.59117],[13.2773,52.59112],[13.27721,52.59109],[13.2771,52.59104],[13.27702,52.59096],[13.27701,52.59084],[13.27706,52.59075],[13.27719,52.59067],[13.27721,52.59053],[13.27701,52.59062],[13.27688,52.5907],[13.27676,52.59075],[13.27664,52.59079],[13.27652,52.59081],[13.27644,52.59083],[13.27635,52.59083],[13.27624,52.59084],[13.27615,52.59083],[13.27606,52.59081],[13.27595,52.59079],[13.27496,52.59056],[13.27336,52.59017],[13.27181,52.58974],[13.2714,52.58962],[13.27116,52.58976],[13.27096,52.58988],[13.27116,52.58993],[13.27176,52.59008],[13.27439,52.59083],[13.27574,52.59121],[13.27637,52.59139],[13.27699,52.59159],[13.27724,52.59168],[13.2775,52.5918],[13.2777,52.59189],[13.27789,52.59199],[13.27807,52.59209],[13.27832,52.59226],[13.27874,52.5926],[13.27877,52.59271],[13.2787,52.59282],[13.27857,52.59287],[13.27849,52.59292],[13.27841,52.59301],[13.27864,52.59314],[13.27875,52.59313],[13.27898,52.59317],[13.2793,52.59334]]]}},{"type":"Feature","properties":{"k":"water","n":"Großer Malchsee"},"geometry":{"type":"Polygon","coordinates":[[[13.26198,52.58854],[13.26149,52.58844],[13.26061,52.58866],[13.26021,52.58892],[13.26007,52.58936],[13.26016,52.58969],[13.26055,52.59011],[13.26012,52.59019],[13.26041,52.59018],[13.2606,52.59015],[13.26076,52.5903],[13.2609,52.59034],[13.26117,52.59054],[13.26134,52.59068],[13.26141,52.59085],[13.26147,52.59099],[13.26176,52.59122],[13.26179,52.59145],[13.26192,52.59161],[13.26202,52.59182],[13.26207,52.59195],[13.26226,52.59227],[13.26213,52.59235],[13.2622,52.59249],[13.26238,52.59266],[13.26247,52.5927],[13.26263,52.59276],[13.26286,52.59284],[13.26298,52.59288],[13.26311,52.59292],[13.26339,52.59302],[13.26368,52.59314],[13.26402,52.59329],[13.26457,52.5931],[13.26477,52.59301],[13.26515,52.59286],[13.26534,52.59274],[13.26573,52.59249],[13.26603,52.59235],[13.2664,52.59207],[13.26661,52.59178],[13.26673,52.59163],[13.26682,52.59153],[13.26686,52.59143],[13.26694,52.59126],[13.26703,52.59106],[13.26708,52.59092],[13.26714,52.59075],[13.26714,52.59053],[13.26702,52.59024],[13.26693,52.59009],[13.26664,52.58996],[13.26608,52.58972],[13.26596,52.58957],[13.26611,52.58942],[13.26198,52.58854]]]}},{"type":"Feature","properties":{"k":"water","n":"Alter Berlin-Spandauer Schifffahrtskanal"},"geometry":{"type":"Polygon","coordinates":[[[13.25495,52.54802],[13.25355,52.54791],[13.25314,52.5479],[13.25286,52.54786],[13.2524,52.54783],[13.25217,52.54782],[13.25205,52.54782],[13.25191,52.54779],[13.24932,52.54758],[13.24867,52.54754],[13.24811,52.5475],[13.24801,52.54758],[13.24792,52.54759],[13.24742,52.54756],[13.24731,52.54746],[13.247,52.54743],[13.24669,52.5474],[13.24653,52.54739],[13.24544,52.54731],[13.24476,52.54724],[13.2444,52.54722],[13.24377,52.54715],[13.24348,52.54713],[13.2434,52.54711],[13.24311,52.54714],[13.24268,52.54708],[13.24188,52.54703],[13.24084,52.54696],[13.24058,52.54695],[13.24031,52.54692],[13.23995,52.5469],[13.23963,52.54688],[13.23929,52.54687],[13.23895,52.54689],[13.23871,52.54691],[13.2384,52.54697],[13.23819,52.54702],[13.23799,52.54709],[13.23764,52.54722],[13.2374,52.54733],[13.23715,52.54747],[13.23691,52.54764],[13.23673,52.54781],[13.2365,52.54809],[13.23626,52.54843],[13.23615,52.54887],[13.23624,52.54935],[13.23656,52.55024],[13.23694,52.55116],[13.23717,52.55184],[13.23729,52.55215],[13.23747,52.55261],[13.23762,52.553],[13.23807,52.55411],[13.23822,52.55453],[13.23834,52.55495],[13.23837,52.55513],[13.23837,52.55524],[13.23839,52.55548],[13.23837,52.55592],[13.23837,52.55606],[13.23837,52.55622],[13.23833,52.55646],[13.23862,52.55634],[13.23882,52.55627],[13.23885,52.55578],[13.23887,52.55559],[13.23886,52.55548],[13.23881,52.55517],[13.23874,52.55479],[13.23874,52.55468],[13.23863,52.55447],[13.23867,52.55436],[13.23857,52.55408],[13.23841,52.55371],[13.23791,52.55251],[13.23789,52.55239],[13.23747,52.55141],[13.23745,52.5513],[13.23742,52.55118],[13.23694,52.55026],[13.2366,52.54931],[13.23657,52.54885],[13.23666,52.5486],[13.23681,52.5483],[13.23694,52.54812],[13.23706,52.54799],[13.23725,52.54781],[13.23728,52.54771],[13.23738,52.54765],[13.23779,52.54749],[13.23799,52.5474],[13.23825,52.5473],[13.2386,52.54719],[13.23873,52.54714],[13.23886,52.54711],[13.23937,52.54712],[13.23945,52.54712],[13.23953,52.54708],[13.23965,52.54709],[13.23981,52.54713],[13.24332,52.5474],[13.24524,52.54755],[13.24618,52.54762],[13.24698,52.54766],[13.24714,52.54767],[13.24725,52.54765],[13.24742,52.54761],[13.24759,52.54762],[13.24792,52.54766],[13.24804,52.54772],[13.25472,52.54827],[13.25493,52.5481],[13.25495,52.54802]]]}},{"type":"Feature","properties":{"k":"water","n":"Koldischteich"},"geometry":{"type":"Polygon","coordinates":[[[13.32501,52.57915],[13.32514,52.57906],[13.32528,52.57904],[13.32538,52.57905],[13.32544,52.57914],[13.3256,52.57937],[13.32555,52.57945],[13.32561,52.57956],[13.32576,52.57952],[13.32598,52.57954],[13.32606,52.57946],[13.32615,52.57941],[13.3262,52.57929],[13.32622,52.5792],[13.32613,52.57909],[13.32621,52.57897],[13.32633,52.5788],[13.3262,52.5787],[13.32606,52.57871],[13.32594,52.57876],[13.32581,52.57875],[13.3257,52.57874],[13.32561,52.57877],[13.32542,52.5788],[13.32529,52.57883],[13.32515,52.57882],[13.32501,52.57886],[13.3249,52.57891],[13.32484,52.57901],[13.32492,52.57906],[13.32492,52.57914],[13.32501,52.57915]]]}},{"type":"Feature","properties":{"k":"water","n":"Havel"},"geometry":{"type":"Polygon","coordinates":[[[13.21279,52.58353],[13.21254,52.58364],[13.2123,52.5837],[13.21199,52.58376],[13.21176,52.58402],[13.21163,52.58425],[13.21149,52.58466],[13.21152,52.58482],[13.21149,52.585],[13.21155,52.58509],[13.21166,52.58516],[13.21176,52.58542],[13.21216,52.58558],[13.21282,52.58595],[13.2134,52.58627],[13.21356,52.58634],[13.21366,52.58635],[13.21387,52.58635],[13.21404,52.58632],[13.21413,52.58631],[13.21423,52.58633],[13.21421,52.58645],[13.21411,52.58686],[13.21411,52.58705],[13.21414,52.58718],[13.21411,52.58734],[13.2141,52.58754],[13.21387,52.58828],[13.21429,52.5888],[13.21439,52.5892],[13.21479,52.58952],[13.2148,52.58976],[13.21435,52.58995],[13.21352,52.59035],[13.21343,52.59052],[13.21336,52.59108],[13.21337,52.59126],[13.21362,52.5916],[13.21397,52.59232],[13.21405,52.59254],[13.21371,52.59281],[13.21381,52.59307],[13.21406,52.59322],[13.21419,52.59336],[13.21426,52.59348],[13.214,52.5936],[13.21383,52.59365],[13.21358,52.59371],[13.21321,52.59383],[13.2125,52.59432],[13.2121,52.59479],[13.21219,52.59511],[13.21208,52.5953],[13.21168,52.59542],[13.2112,52.59544],[13.21082,52.59555],[13.21043,52.59572],[13.21242,52.5963],[13.21424,52.59683],[13.2144,52.59684],[13.21456,52.59682],[13.21479,52.5968],[13.21519,52.59671],[13.21543,52.59658],[13.21562,52.59645],[13.21578,52.59625],[13.21618,52.59571],[13.21659,52.59538],[13.21782,52.59514],[13.21819,52.59512],[13.21863,52.59513],[13.21897,52.59509],[13.21927,52.595],[13.21936,52.59498],[13.2195,52.59494],[13.21967,52.59489],[13.21983,52.59484],[13.22024,52.59473],[13.22057,52.59461],[13.2208,52.59451],[13.22093,52.59444],[13.22101,52.59434],[13.2211,52.59434],[13.22158,52.59399],[13.22285,52.59263],[13.22294,52.59239],[13.22272,52.59195],[13.22225,52.59129],[13.2221,52.59106],[13.22201,52.59093],[13.22129,52.58977],[13.22102,52.58898],[13.22076,52.58883],[13.22073,52.58825],[13.22078,52.58808],[13.22066,52.58782],[13.22072,52.5877],[13.22056,52.5872],[13.22027,52.5869],[13.22037,52.58672],[13.22004,52.58617],[13.21998,52.58541],[13.22001,52.58531],[13.21998,52.58514],[13.21994,52.58496],[13.21971,52.5842],[13.21973,52.58358],[13.21973,52.58342],[13.21974,52.58314],[13.21975,52.58297],[13.21979,52.58278],[13.21985,52.58242],[13.22008,52.58186],[13.22015,52.58165],[13.22011,52.58128],[13.22014,52.58095],[13.21985,52.58059],[13.21941,52.57989],[13.21937,52.5798],[13.21943,52.57968],[13.21946,52.57958],[13.21952,52.57948],[13.21946,52.57938],[13.21955,52.57928],[13.21953,52.57915],[13.21946,52.57906],[13.21943,52.57896],[13.21945,52.57885],[13.21947,52.57877],[13.21943,52.57867],[13.21935,52.57848],[13.21939,52.57813],[13.21978,52.57755],[13.22053,52.57671],[13.22067,52.57663],[13.22085,52.57654],[13.22104,52.57645],[13.22119,52.57638],[13.22127,52.57633],[13.22128,52.57624],[13.22137,52.57627],[13.22147,52.57623],[13.22155,52.57619],[13.22165,52.5761],[13.22245,52.57566],[13.22266,52.57554],[13.22278,52.57547],[13.2231,52.57523],[13.22319,52.57518],[13.22342,52.57508],[13.22355,52.57503],[13.22379,52.57495],[13.22388,52.5749],[13.224,52.57484],[13.22418,52.57475],[13.2243,52.57469],[13.22438,52.57465],[13.2245,52.57458],[13.22475,52.57443],[13.22525,52.57406],[13.2257,52.57374],[13.22581,52.57366],[13.22589,52.57347],[13.22599,52.57333],[13.22613,52.57327],[13.22403,52.57288],[13.22388,52.57306],[13.22383,52.57316],[13.22376,52.57331],[13.22362,52.5734],[13.22334,52.57363],[13.22299,52.57385],[13.22236,52.57406],[13.22177,52.57424],[13.22103,52.57456],[13.22033,52.57501],[13.21979,52.5754],[13.21971,52.57545],[13.21969,52.57553],[13.21961,52.57562],[13.21956,52.57571],[13.21951,52.5758],[13.21942,52.57591],[13.21936,52.576],[13.21925,52.5761],[13.21917,52.57615],[13.21852,52.57654],[13.21782,52.57695],[13.21774,52.57705],[13.21776,52.57715],[13.21775,52.57731],[13.21764,52.57741],[13.21748,52.57749],[13.21731,52.57751],[13.21723,52.57765],[13.21716,52.57773],[13.21727,52.57773],[13.21726,52.57784],[13.21717,52.5779],[13.21703,52.57801],[13.21686,52.57825],[13.21656,52.57878],[13.21653,52.57925],[13.21662,52.57945],[13.21672,52.57955],[13.21681,52.57966],[13.21683,52.57977],[13.21682,52.57987],[13.21654,52.58038],[13.21648,52.58047],[13.21618,52.58087],[13.21611,52.5811],[13.21566,52.5813],[13.21543,52.58153],[13.21516,52.58181],[13.21483,52.58194],[13.21456,52.58198],[13.21447,52.58202],[13.21431,52.58208],[13.21422,52.58212],[13.21398,52.58225],[13.21353,52.58241],[13.21316,52.58257],[13.21281,52.58287],[13.21274,52.58296],[13.21277,52.58325],[13.21279,52.58353]]]}},{"type":"Feature","properties":{"k":"water","n":"Berlin-Spandauer Schifffahrtskanal"},"geometry":{"type":"Polygon","coordinates":[[[13.32299,52.54356],[13.32256,52.54386],[13.32231,52.54405],[13.32219,52.54405],[13.32186,52.54429],[13.32116,52.54483],[13.32021,52.54556],[13.31934,52.54624],[13.3192,52.54633],[13.31877,52.54665],[13.3186,52.54678],[13.31845,52.5469],[13.31809,52.54713],[13.31784,52.54725],[13.31753,52.54738],[13.31734,52.54745],[13.31711,52.54753],[13.31669,52.54762],[13.31655,52.54764],[13.31623,52.54767],[13.31602,52.54768],[13.3158,52.54769],[13.31497,52.54773],[13.31417,52.54776],[13.31301,52.54781],[13.31176,52.54787],[13.31057,52.54792],[13.30915,52.54797],[13.30799,52.54802],[13.30685,52.54806],[13.30555,52.54811],[13.30442,52.54814],[13.3033,52.54816],[13.30234,52.54818],[13.30175,52.54819],[13.30143,52.5482],[13.30104,52.54821],[13.30045,52.54824],[13.29864,52.54828],[13.29683,52.54832],[13.29522,52.54835],[13.29418,52.54836],[13.29319,52.54838],[13.29218,52.54839],[13.2909,52.54842],[13.28946,52.54844],[13.28804,52.54847],[13.28713,52.54849],[13.28591,52.5485],[13.28483,52.54852],[13.28366,52.54855],[13.2813,52.54859],[13.27997,52.5486],[13.27783,52.54865],[13.27631,52.54867],[13.27623,52.54865],[13.27483,52.5487],[13.27333,52.54871],[13.27049,52.54875],[13.26643,52.54883],[13.26547,52.54882],[13.26505,52.54879],[13.26449,52.54875],[13.26292,52.54863],[13.26134,52.54852],[13.25947,52.54837],[13.25495,52.54802],[13.25478,52.5483],[13.2549,52.5483],[13.25649,52.54841],[13.25684,52.54844],[13.25784,52.54851],[13.25857,52.54855],[13.25986,52.54865],[13.26003,52.54868],[13.26043,52.54871],[13.2608,52.54872],[13.26094,52.54874],[13.26102,52.54882],[13.261,52.5489],[13.26091,52.54894],[13.26077,52.54895],[13.2604,52.54896],[13.25993,52.54897],[13.25938,52.54898],[13.25825,52.54901],[13.25787,52.54903],[13.25752,52.54904],[13.25702,52.54908],[13.25633,52.54916],[13.25512,52.54934],[13.25454,52.54945],[13.25408,52.54954],[13.25347,52.54969],[13.2531,52.54978],[13.25266,52.5499],[13.25153,52.55027],[13.25049,52.55069],[13.24972,52.55105],[13.24911,52.55134],[13.24902,52.5514],[13.24881,52.55151],[13.2487,52.55154],[13.24821,52.55181],[13.24785,52.55186],[13.2459,52.55282],[13.24574,52.5529],[13.24428,52.55362],[13.24124,52.55514],[13.24124,52.55526],[13.2401,52.55583],[13.239,52.55636],[13.2389,52.55635],[13.23882,52.55627],[13.23862,52.55634],[13.23828,52.55649],[13.23796,52.55662],[13.23769,52.55671],[13.23759,52.5568],[13.23739,52.55708],[13.23721,52.55719],[13.23389,52.55885],[13.23139,52.56009],[13.23164,52.56028],[13.23187,52.56047],[13.23412,52.55933],[13.23425,52.5593],[13.23439,52.55926],[13.23475,52.55904],[13.23617,52.55834],[13.2377,52.55758],[13.23793,52.55747],[13.23806,52.55742],[13.23818,52.55744],[13.2383,52.55746],[13.23847,52.55741],[13.23861,52.55735],[13.23874,52.55727],[13.23884,52.55715],[13.23885,52.55706],[13.23979,52.55653],[13.24012,52.55637],[13.24037,52.55623],[13.24052,52.55616],[13.24084,52.55595],[13.24096,52.55594],[13.24124,52.55582],[13.2454,52.55376],[13.24775,52.55259],[13.24862,52.55217],[13.24882,52.55206],[13.24887,52.55197],[13.24896,52.55192],[13.24917,52.55182],[13.24925,52.55181],[13.24934,52.55179],[13.2495,52.55172],[13.25017,52.5514],[13.25048,52.55125],[13.25057,52.55124],[13.25157,52.55079],[13.25165,52.55078],[13.25205,52.55063],[13.25275,52.55037],[13.25287,52.55035],[13.25301,52.55031],[13.25312,52.55026],[13.25331,52.55023],[13.25392,52.55005],[13.25401,52.55006],[13.25441,52.54997],[13.25493,52.54984],[13.25506,52.54981],[13.25518,52.54978],[13.2555,52.54973],[13.25596,52.54966],[13.25696,52.54954],[13.25757,52.5495],[13.25904,52.54942],[13.26123,52.54939],[13.26339,52.54934],[13.27033,52.54922],[13.27052,52.54923],[13.28368,52.549],[13.29116,52.54885],[13.29604,52.54878],[13.29647,52.54879],[13.30084,52.54871],[13.3014,52.54868],[13.30152,52.54867],[13.3016,52.54867],[13.30205,52.54864],[13.30515,52.54855],[13.3096,52.54843],[13.31,52.54843],[13.31038,52.54843],[13.31061,52.54842],[13.31077,52.54849],[13.31453,52.54836],[13.31475,52.54826],[13.315,52.54825],[13.31512,52.54824],[13.31647,52.54817],[13.31729,52.54812],[13.31756,52.54811],[13.31769,52.54808],[13.31782,52.54805],[13.31799,52.54797],[13.31818,52.54787],[13.31842,52.54771],[13.31898,52.5473],[13.32003,52.5465],[13.32104,52.54572],[13.32211,52.54494],[13.32286,52.54429],[13.32301,52.54416],[13.32341,52.54381],[13.32336,52.54372],[13.32326,52.54375],[13.32306,52.54365],[13.32299,52.54356]]]}},{"type":"Feature","properties":{"k":"road","n":null},"geometry":{"type":"LineString","coordinates":[[13.29256,52.53469],[13.29298,52.53546]]}},{"type":"Feature","properties":{"k":"road","n":null},"geometry":{"type":"LineString","coordinates":[[13.29298,52.53546],[13.29336,52.53615]]}},{"type":"Feature","properties":{"k":"road","n":null},"geometry":{"type":"LineString","coordinates":[[13.29282,52.53549],[13.29264,52.53517],[13.29246,52.53492],[13.29238,52.53482]]}},{"type":"Feature","properties":{"k":"road","n":null},"geometry":{"type":"LineString","coordinates":[[13.30327,52.55117],[13.30366,52.55163],[13.30538,52.55355],[13.30616,52.55439]]}},{"type":"Feature","properties":{"k":"road","n":null},"geometry":{"type":"LineString","coordinates":[[13.30487,52.5532],[13.3035,52.55168],[13.30244,52.55045],[13.30104,52.54875]]}},{"type":"Feature","properties":{"k":"road","n":null},"geometry":{"type":"LineString","coordinates":[[13.30685,52.56731],[13.30672,52.56743],[13.30659,52.56755],[13.30642,52.56774],[13.30626,52.56794],[13.30613,52.56815],[13.306,52.56839],[13.30594,52.56852],[13.30589,52.56865],[13.30584,52.5688],[13.30579,52.56898],[13.30575,52.56917],[13.30572,52.5694],[13.3057,52.57],[13.30571,52.57051]]}},{"type":"Feature","properties":{"k":"road","n":null},"geometry":{"type":"LineString","coordinates":[[13.30465,52.57401],[13.30439,52.57426]]}},{"type":"Feature","properties":{"k":"road","n":null},"geometry":{"type":"LineString","coordinates":[[13.30439,52.57426],[13.30378,52.57474],[13.30342,52.57497]]}},{"type":"Feature","properties":{"k":"road","n":null},"geometry":{"type":"LineString","coordinates":[[13.30427,52.57416],[13.30458,52.57386]]}},{"type":"Feature","properties":{"k":"road","n":null},"geometry":{"type":"LineString","coordinates":[[13.30458,52.57386],[13.30489,52.57345],[13.30499,52.57329],[13.30515,52.573],[13.30525,52.57283],[13.30532,52.57264]]}},{"type":"Feature","properties":{"k":"road","n":null},"geometry":{"type":"LineString","coordinates":[[13.30191,52.57576],[13.30139,52.576]]}},{"type":"Feature","properties":{"k":"road","n":null},"geometry":{"type":"LineString","coordinates":[[13.30139,52.576],[13.30106,52.57615]]}},{"type":"Feature","properties":{"k":"road","n":null},"geometry":{"type":"LineString","coordinates":[[13.30119,52.57595],[13.30174,52.57569]]}},{"type":"Feature","properties":{"k":"road","n":null},"geometry":{"type":"LineString","coordinates":[[13.30174,52.57569],[13.30221,52.57546],[13.30269,52.57522],[13.30316,52.57496],[13.30363,52.57466],[13.30398,52.57441],[13.30427,52.57416]]}},{"type":"Feature","properties":{"k":"road","n":null},"geometry":{"type":"LineString","coordinates":[[13.29948,52.54652],[13.29979,52.54694],[13.29988,52.54705],[13.30038,52.54767]]}},{"type":"Feature","properties":{"k":"road","n":null},"geometry":{"type":"LineString","coordinates":[[13.29728,52.54386],[13.29648,52.54235],[13.29631,52.542]]}},{"type":"Feature","properties":{"k":"road","n":null},"geometry":{"type":"LineString","coordinates":[[13.29639,52.5418],[13.29669,52.54227],[13.29685,52.54258]]}},{"type":"Feature","properties":{"k":"road","n":null},"geometry":{"type":"LineString","coordinates":[[13.29631,52.542],[13.29591,52.54121],[13.29516,52.53985],[13.29496,52.53945],[13.29434,52.53831],[13.29393,52.53756],[13.29355,52.53689],[13.29347,52.53676]]}},{"type":"Feature","properties":{"k":"terminal","n":"Terminal"},"geometry":{"type":"Polygon","coordinates":[[[13.29502,52.56456],[13.29505,52.56446],[13.29694,52.56465],[13.29691,52.56475],[13.29502,52.56456]]]}},{"type":"Feature","properties":{"k":"road","n":null},"geometry":{"type":"LineString","coordinates":[[13.31051,52.56422],[13.3106,52.56479],[13.31071,52.56517],[13.31072,52.56529],[13.31073,52.5654],[13.31071,52.56549],[13.31068,52.56557],[13.31063,52.56566],[13.31057,52.56575],[13.3105,52.56584],[13.31041,52.56592],[13.31025,52.56603],[13.31008,52.56612],[13.30983,52.56621],[13.30958,52.56629]]}},{"type":"Feature","properties":{"k":"road","n":null},"geometry":{"type":"LineString","coordinates":[[13.29632,52.5791],[13.29651,52.57887],[13.29674,52.57861],[13.29703,52.57833],[13.29727,52.57814]]}},{"type":"Feature","properties":{"k":"road","n":null},"geometry":{"type":"LineString","coordinates":[[13.32646,52.53819],[13.32693,52.53831],[13.32725,52.5384],[13.32769,52.53852],[13.32825,52.53869]]}},{"type":"Feature","properties":{"k":"road","n":null},"geometry":{"type":"LineString","coordinates":[[13.32216,52.53749],[13.32075,52.53728],[13.31978,52.53714],[13.31701,52.53675],[13.31182,52.536],[13.30646,52.53525]]}},{"type":"Feature","properties":{"k":"road","n":null},"geometry":{"type":"LineString","coordinates":[[13.29327,52.53632],[13.29323,52.53625]]}},{"type":"Feature","properties":{"k":"road","n":null},"geometry":{"type":"LineString","coordinates":[[13.29348,52.53639],[13.29371,52.5368]]}},{"type":"Feature","properties":{"k":"road","n":null},"geometry":{"type":"LineString","coordinates":[[13.31046,52.56393],[13.31051,52.56422]]}},{"type":"Feature","properties":{"k":"road","n":null},"geometry":{"type":"LineString","coordinates":[[13.30603,52.55443],[13.30523,52.55354],[13.30487,52.5532]]}},{"type":"Feature","properties":{"k":"road","n":null},"geometry":{"type":"LineString","coordinates":[[13.30616,52.55439],[13.30696,52.55523],[13.30757,52.55587],[13.30819,52.55651],[13.30966,52.55804]]}},{"type":"Feature","properties":{"k":"road","n":null},"geometry":{"type":"LineString","coordinates":[[13.30262,52.5754],[13.30191,52.57576]]}},{"type":"Feature","properties":{"k":"road","n":null},"geometry":{"type":"LineString","coordinates":[[13.30111,52.57598],[13.30119,52.57595]]}},{"type":"Feature","properties":{"k":"road","n":null},"geometry":{"type":"LineString","coordinates":[[13.29594,52.57961],[13.29632,52.5791]]}},{"type":"Feature","properties":{"k":"road","n":null},"geometry":{"type":"LineString","coordinates":[[13.29514,52.58108],[13.29465,52.58178]]}},{"type":"Feature","properties":{"k":"road","n":null},"geometry":{"type":"LineString","coordinates":[[13.29615,52.57964],[13.29571,52.58024],[13.29514,52.58108]]}},{"type":"Feature","properties":{"k":"road","n":null},"geometry":{"type":"LineString","coordinates":[[13.29552,52.58023],[13.29594,52.57961]]}},{"type":"Feature","properties":{"k":"road","n":null},"geometry":{"type":"LineString","coordinates":[[13.30106,52.57615],[13.30056,52.57636],[13.29982,52.5767],[13.29913,52.57704],[13.29855,52.57737],[13.29825,52.57756],[13.29801,52.57772]]}},{"type":"Feature","properties":{"k":"road","n":null},"geometry":{"type":"LineString","coordinates":[[13.28714,52.59241],[13.28928,52.58936],[13.28975,52.58869],[13.29134,52.58643]]}},{"type":"Feature","properties":{"k":"road","n":null},"geometry":{"type":"LineString","coordinates":[[13.30551,52.56969],[13.30552,52.56938],[13.30555,52.56915],[13.3056,52.56894],[13.30565,52.56875],[13.30572,52.56853],[13.30581,52.56833],[13.30591,52.56814],[13.30608,52.56784],[13.30626,52.56757],[13.30642,52.56735]]}},{"type":"Feature","properties":{"k":"road","n":null},"geometry":{"type":"LineString","coordinates":[[13.30642,52.56735],[13.30663,52.56709],[13.30687,52.56683],[13.30706,52.56665],[13.30725,52.56649],[13.30747,52.56635],[13.30771,52.5662],[13.30798,52.56605],[13.30819,52.56595],[13.30844,52.56582],[13.30867,52.56572],[13.30894,52.56561],[13.30912,52.56552],[13.30928,52.56543],[13.30942,52.56534],[13.30956,52.56524],[13.30961,52.5652]]}},{"type":"Feature","properties":{"k":"road","n":null},"geometry":{"type":"LineString","coordinates":[[13.30568,52.57194],[13.30563,52.57217]]}},{"type":"Feature","properties":{"k":"road","n":null},"geometry":{"type":"LineString","coordinates":[[13.30571,52.5716],[13.30568,52.57194]]}},{"type":"Feature","properties":{"k":"road","n":null},"geometry":{"type":"LineString","coordinates":[[13.30571,52.57051],[13.30572,52.57105],[13.30571,52.5716]]}},{"type":"Feature","properties":{"k":"road","n":null},"geometry":{"type":"LineString","coordinates":[[13.30552,52.57149],[13.3055,52.57],[13.30551,52.56969]]}},{"type":"Feature","properties":{"k":"road","n":null},"geometry":{"type":"LineString","coordinates":[[13.31004,52.56453],[13.31049,52.56286],[13.31091,52.56116],[13.31092,52.56089],[13.3109,52.56061],[13.31086,52.56035],[13.3108,52.56006],[13.31065,52.55961],[13.31044,52.55922],[13.31021,52.55887],[13.30949,52.55807],[13.30914,52.55768]]}},{"type":"Feature","properties":{"k":"water","n":"Flughafensee"},"geometry":{"type":"Polygon","coordinates":[[[13.28131,52.56706],[13.28139,52.56712],[13.28169,52.56734],[13.28202,52.5676],[13.28227,52.56775],[13.28249,52.56779],[13.28261,52.5679],[13.28275,52.56803],[13.2829,52.56813],[13.28299,52.56818],[13.28317,52.5682],[13.28325,52.56812],[13.28334,52.56808],[13.28352,52.56814],[13.28363,52.56815],[13.28383,52.56823],[13.284,52.56836],[13.28414,52.56846],[13.28418,52.56855],[13.28404,52.56862],[13.28388,52.56873],[13.28388,52.56889],[13.28409,52.56933],[13.28416,52.56954],[13.28424,52.56958],[13.2844,52.56963],[13.28448,52.56964],[13.2847,52.56965],[13.2848,52.56961],[13.28493,52.56954],[13.28502,52.56954],[13.28512,52.56973],[13.28514,52.56984],[13.28528,52.56994],[13.28536,52.56995],[13.28546,52.56998],[13.28558,52.56999],[13.28576,52.57008],[13.28594,52.57017],[13.28605,52.57032],[13.28611,52.57041],[13.2862,52.57047],[13.28626,52.57059],[13.28654,52.57066],[13.28669,52.57066],[13.28691,52.57063],[13.28707,52.57067],[13.28721,52.57071],[13.28789,52.57069],[13.28826,52.57058],[13.28841,52.57054],[13.28851,52.57051],[13.28863,52.57051],[13.28894,52.5705],[13.28906,52.57049],[13.2892,52.57046],[13.28929,52.57038],[13.28946,52.57031],[13.28961,52.5703],[13.28972,52.57026],[13.28983,52.57017],[13.28991,52.57016],[13.29016,52.57017],[13.29039,52.57033],[13.29148,52.57026],[13.29172,52.57027],[13.29248,52.57018],[13.29341,52.57014],[13.29397,52.57009],[13.29409,52.57009],[13.2942,52.5704],[13.29424,52.57013],[13.29428,52.57002],[13.2943,52.56986],[13.29426,52.56977],[13.29419,52.56968],[13.29414,52.56951],[13.29406,52.56938],[13.29396,52.56928],[13.29391,52.56916],[13.29368,52.56904],[13.2936,52.56901],[13.29344,52.56895],[13.29329,52.56892],[13.29316,52.56895],[13.29308,52.56896],[13.29295,52.56895],[13.29286,52.56897],[13.29272,52.56899],[13.29253,52.56899],[13.29232,52.569],[13.2922,52.56904],[13.29206,52.56903],[13.29192,52.56903],[13.29178,52.56902],[13.29168,52.56904],[13.29153,52.56908],[13.2914,52.56909],[13.29125,52.56907],[13.29117,52.56908],[13.29108,52.56908],[13.29097,52.5691],[13.29075,52.56913],[13.29063,52.56917],[13.29047,52.56917],[13.29024,52.56917],[13.29003,52.56921],[13.28982,52.56924],[13.28967,52.56925],[13.28945,52.56928],[13.28929,52.56934],[13.28918,52.56933],[13.2891,52.5693],[13.289,52.56922],[13.28885,52.56886],[13.28882,52.56871],[13.28882,52.5686],[13.28878,52.56833],[13.28872,52.56823],[13.28866,52.56813],[13.2886,52.56798],[13.28853,52.56786],[13.28849,52.56773],[13.2884,52.56756],[13.28842,52.56738],[13.28837,52.56723],[13.28827,52.56714],[13.28831,52.56698],[13.28825,52.56685],[13.28814,52.56678],[13.28787,52.56658],[13.28776,52.56642],[13.28768,52.5663],[13.28762,52.5662],[13.28763,52.56602],[13.28768,52.56594],[13.28767,52.56584],[13.28772,52.56574],[13.28781,52.56569],[13.28789,52.56567],[13.28802,52.56571],[13.28813,52.56587],[13.28817,52.56597],[13.2882,52.56608],[13.28832,52.56616],[13.28841,52.56618],[13.2885,52.56622],[13.28863,52.5662],[13.28877,52.5662],[13.28886,52.56619],[13.28897,52.56614],[13.28909,52.56606],[13.2893,52.56597],[13.28941,52.56584],[13.28939,52.56575],[13.28922,52.56568],[13.28913,52.56565],[13.28904,52.56564],[13.2889,52.56565],[13.28878,52.56564],[13.28868,52.56562],[13.28849,52.56553],[13.2883,52.5655],[13.28816,52.56551],[13.28805,52.56555],[13.28796,52.56555],[13.28785,52.56549],[13.28776,52.56546],[13.28759,52.56548],[13.28748,52.56549],[13.2874,52.56546],[13.28721,52.56533],[13.28734,52.56537],[13.28743,52.5654],[13.28753,52.56539],[13.28762,52.56538],[13.28754,52.56528],[13.28739,52.56524],[13.2873,52.56523],[13.2872,52.5652],[13.2871,52.56515],[13.28702,52.56513],[13.28688,52.56511],[13.28675,52.56508],[13.28663,52.56504],[13.28623,52.56498],[13.28607,52.56498],[13.28582,52.56494],[13.28567,52.56492],[13.28544,52.56485],[13.28529,52.56487],[13.2852,52.56485],[13.28501,52.56491],[13.28493,52.56502],[13.2848,52.56491],[13.28461,52.56484],[13.28422,52.56483],[13.28371,52.56489],[13.2834,52.56484],[13.28287,52.56495],[13.28259,52.56505],[13.28235,52.56519],[13.28226,52.56531],[13.28217,52.56533],[13.28209,52.56538],[13.28174,52.56567],[13.28167,52.56575],[13.28169,52.56584],[13.28174,52.56599],[13.28163,52.56612],[13.28149,52.56614],[13.28137,52.56619],[13.28129,52.56646],[13.28137,52.56652],[13.28148,52.56656],[13.28143,52.56672],[13.28148,52.56686],[13.28133,52.56692],[13.28131,52.56706]]]}},{"type":"Feature","properties":{"k":"road","n":null},"geometry":{"type":"LineString","coordinates":[[13.32304,52.53747],[13.32354,52.53758],[13.32362,52.5376],[13.32428,52.53771],[13.32485,52.53782],[13.32568,52.538],[13.32593,52.53806]]}},{"type":"Feature","properties":{"k":"road","n":null},"geometry":{"type":"LineString","coordinates":[[13.31961,52.53699],[13.32263,52.53741]]}},{"type":"Feature","properties":{"k":"road","n":null},"geometry":{"type":"LineString","coordinates":[[13.29347,52.53676],[13.2933,52.53638]]}},{"type":"Feature","properties":{"k":"road","n":null},"geometry":{"type":"LineString","coordinates":[[13.29371,52.5368],[13.29386,52.5371],[13.2945,52.53833],[13.2951,52.53944],[13.2953,52.53981],[13.2959,52.54091],[13.29621,52.54149],[13.29639,52.5418]]}},{"type":"Feature","properties":{"k":"road","n":null},"geometry":{"type":"LineString","coordinates":[[13.29685,52.54258],[13.29735,52.54351]]}},{"type":"Feature","properties":{"k":"road","n":null},"geometry":{"type":"LineString","coordinates":[[13.32263,52.53741],[13.32304,52.53747]]}},{"type":"Feature","properties":{"k":"road","n":null},"geometry":{"type":"LineString","coordinates":[[13.30646,52.53525],[13.30475,52.535],[13.30218,52.53463]]}},{"type":"Feature","properties":{"k":"road","n":null},"geometry":{"type":"LineString","coordinates":[[13.29735,52.54351],[13.29753,52.54389],[13.29785,52.54443],[13.29815,52.54487],[13.29895,52.5459]]}},{"type":"Feature","properties":{"k":"road","n":null},"geometry":{"type":"LineString","coordinates":[[13.30038,52.54767],[13.3005,52.54781]]}},{"type":"Feature","properties":{"k":"road","n":null},"geometry":{"type":"LineString","coordinates":[[13.30247,52.55023],[13.30327,52.55117]]}},{"type":"Feature","properties":{"k":"road","n":null},"geometry":{"type":"LineString","coordinates":[[13.30096,52.54836],[13.30126,52.54874]]}},{"type":"Feature","properties":{"k":"road","n":null},"geometry":{"type":"LineString","coordinates":[[13.31091,52.56211],[13.31046,52.56393]]}},{"type":"Feature","properties":{"k":"water","n":"Regenauffangbecken"},"geometry":{"type":"Polygon","coordinates":[[[13.33109,52.57623],[13.33118,52.57623],[13.33126,52.57619],[13.33117,52.57612],[13.33107,52.57615],[13.33109,52.57623]]]}},{"type":"Feature","properties":{"k":"water","n":"Vorbecken Schwarzer-Graben-Kanal"},"geometry":{"type":"Polygon","coordinates":[[[13.29425,52.5704],[13.29464,52.57039],[13.29486,52.57028],[13.29494,52.57026],[13.2947,52.57014],[13.29427,52.57013],[13.29425,52.5704]]]}},{"type":"Feature","properties":{"k":"road","n":null},"geometry":{"type":"LineString","coordinates":[[13.30028,52.54782],[13.29993,52.54738]]}},{"type":"Feature","properties":{"k":"road","n":null},"geometry":{"type":"LineString","coordinates":[[13.32587,52.53822],[13.32554,52.53814],[13.32481,52.53798],[13.32415,52.53784],[13.32316,52.53766],[13.32216,52.53749]]}},{"type":"Feature","properties":{"k":"road","n":null},"geometry":{"type":"LineString","coordinates":[[13.3264,52.53834],[13.32587,52.53822]]}},{"type":"Feature","properties":{"k":"road","n":null},"geometry":{"type":"LineString","coordinates":[[13.32593,52.53806],[13.32646,52.53819]]}},{"type":"Feature","properties":{"k":"apron","n":null},"geometry":{"type":"Polygon","coordinates":[[[13.28964,52.56292],[13.30423,52.56432],[13.30406,52.56494],[13.3038,52.56505],[13.30114,52.56476],[13.30108,52.56499],[13.29481,52.56432],[13.28941,52.56379],[13.28964,52.56292]]]}},{"type":"Feature","properties":{"k":"water","n":"Jungfernheideteich"},"geometry":{"type":"Polygon","coordinates":[[[13.27758,52.56944],[13.27765,52.56935],[13.27779,52.56931],[13.27793,52.56929],[13.27811,52.5693],[13.27828,52.56934],[13.27841,52.56943],[13.27843,52.56952],[13.27829,52.56966],[13.2782,52.56974],[13.27823,52.56988],[13.27826,52.57001],[13.27805,52.57008],[13.27788,52.57008],[13.27769,52.57007],[13.27762,52.56996],[13.27757,52.56988],[13.27762,52.56976],[13.27769,52.56963],[13.27762,52.56953],[13.27758,52.56944]]]}},{"type":"Feature","properties":{"k":"water","n":"Kienholzbecken"},"geometry":{"type":"Polygon","coordinates":[[[13.33939,52.57962],[13.33953,52.5794],[13.33944,52.57935],[13.33938,52.57943],[13.33938,52.57954],[13.33939,52.57962]]]}},{"type":"Feature","properties":{"k":"water","n":"Westhafen II"},"geometry":{"type":"Polygon","coordinates":[[[13.33126,52.53838],[13.33119,52.53825],[13.33133,52.53819],[13.33501,52.53768],[13.34005,52.53704],[13.33987,52.53655],[13.33043,52.53789],[13.33126,52.53838]]]}},{"type":"Feature","properties":{"k":"water","n":"Westhafen I"},"geometry":{"type":"Polygon","coordinates":[[[13.33043,52.53789],[13.3301,52.53702],[13.33606,52.53618],[13.33599,52.53595],[13.33549,52.53589],[13.33525,52.53588],[13.33495,52.53589],[13.3347,52.5359],[13.32766,52.53688],[13.32739,52.53726],[13.33043,52.53789]]]}},{"type":"Feature","properties":{"k":"road","n":null},"geometry":{"type":"LineString","coordinates":[[13.29323,52.53625],[13.2932,52.53619]]}},{"type":"Feature","properties":{"k":"road","n":null},"geometry":{"type":"LineString","coordinates":[[13.2933,52.53638],[13.29327,52.53632]]}},{"type":"Feature","properties":{"k":"water","n":"Kleine Libelle"},"geometry":{"type":"Polygon","coordinates":[[[13.31356,52.54908],[13.31366,52.5491],[13.31377,52.54906],[13.31378,52.54896],[13.31372,52.54888],[13.3136,52.54886],[13.31351,52.54885],[13.31345,52.54896],[13.31334,52.54897],[13.31322,52.54893],[13.31311,52.5489],[13.31301,52.54895],[13.31307,52.54903],[13.31315,52.54908],[13.31324,52.54911],[13.31334,52.5491],[13.31344,52.54908],[13.31356,52.54908]]]}},{"type":"Feature","properties":{"k":"road","n":null},"geometry":{"type":"LineString","coordinates":[[13.30342,52.57497],[13.30301,52.5752],[13.30262,52.5754]]}},{"type":"Feature","properties":{"k":"water","n":"Duck’s pond"},"geometry":{"type":"LineString","coordinates":[[13.28285,52.54279],[13.28285,52.54279]]}},{"type":"Feature","properties":{"k":"road","n":null},"geometry":{"type":"LineString","coordinates":[[13.31788,52.53674],[13.31961,52.53699]]}},{"type":"Feature","properties":{"k":"water","n":"Kranichpfuhl"},"geometry":{"type":"Polygon","coordinates":[[[13.33254,52.58944],[13.33244,52.58944],[13.33234,52.58937],[13.33228,52.58922],[13.33229,52.58912],[13.33241,52.58908],[13.3325,52.58909],[13.33264,52.58933],[13.33262,52.58941],[13.33254,52.58944]]]}},{"type":"Feature","properties":{"k":"water","n":"Jungfernheideteich"},"geometry":{"type":"Polygon","coordinates":[[[13.27588,52.54329],[13.27538,52.54339],[13.27521,52.54345],[13.27512,52.54349],[13.27493,52.54362],[13.27487,52.54376],[13.27485,52.54384],[13.27489,52.54402],[13.27496,52.54412],[13.27512,52.54425],[13.2753,52.54437],[13.27541,52.54439],[13.27582,52.54445],[13.27594,52.54443],[13.27604,52.54443],[13.27614,52.54441],[13.27627,52.5444],[13.27635,52.54442],[13.27644,52.54449],[13.27708,52.54455],[13.2778,52.5446],[13.27778,52.54489],[13.28081,52.5449],[13.28183,52.5449],[13.28184,52.54465],[13.28243,52.54465],[13.28259,52.54462],[13.28274,52.54456],[13.28287,52.54444],[13.28291,52.5443],[13.2831,52.5443],[13.28329,52.54416],[13.2835,52.544],[13.28351,52.54391],[13.28344,52.54374],[13.28313,52.54346],[13.283,52.54341],[13.28291,52.5434],[13.28282,52.54327],[13.28265,52.54315],[13.28243,52.54308],[13.28225,52.54306],[13.28203,52.54305],[13.28189,52.54304],[13.28185,52.54282],[13.27925,52.54282],[13.27778,52.54282],[13.27777,52.54309],[13.27648,52.54322],[13.27639,52.54325],[13.27619,52.54331],[13.27606,52.54326],[13.27594,52.54328],[13.27588,52.54329]]]}},{"type":"Feature","properties":{"k":"water","n":"Spandauer See"},"geometry":{"type":"Polygon","coordinates":[[[13.20902,52.54121],[13.20892,52.54122],[13.20883,52.54119],[13.20875,52.54123],[13.20898,52.54026],[13.20891,52.54012],[13.20896,52.54002],[13.20885,52.54011],[13.20873,52.54035],[13.20788,52.54042],[13.20761,52.54035],[13.20721,52.5402],[13.20715,52.54032],[13.20728,52.54041],[13.20744,52.54045],[13.20761,52.54057],[13.20792,52.54071],[13.20801,52.54078],[13.20808,52.54093],[13.20806,52.54114],[13.20811,52.54124],[13.20825,52.5414],[13.20811,52.54156],[13.20803,52.54169],[13.20798,52.54196],[13.20796,52.54213],[13.20795,52.54224],[13.20793,52.5424],[13.20797,52.5425],[13.20801,52.54261],[13.2081,52.54277],[13.20824,52.54296],[13.2084,52.54309],[13.20886,52.54334],[13.20915,52.5435],[13.20957,52.54356],[13.20971,52.5436],[13.20986,52.54365],[13.21017,52.54388],[13.21052,52.54426],[13.21059,52.54451],[13.21063,52.54466],[13.21103,52.5451],[13.21103,52.54522],[13.21117,52.54539],[13.2114,52.54567],[13.2115,52.54577],[13.21181,52.54606],[13.21186,52.54614],[13.21198,52.54613],[13.21208,52.54619],[13.21248,52.54685],[13.2126,52.54702],[13.21272,52.54729],[13.2128,52.54732],[13.21283,52.54742],[13.21299,52.5477],[13.2131,52.54803],[13.2132,52.54821],[13.2133,52.54832],[13.21342,52.54844],[13.2135,52.54854],[13.21414,52.54921],[13.21502,52.55088],[13.21561,52.55206],[13.21568,52.55271],[13.21574,52.55285],[13.21597,52.55355],[13.21615,52.55392],[13.21617,52.55413],[13.21622,52.55431],[13.21625,52.5544],[13.2163,52.55449],[13.21614,52.55482],[13.21615,52.55491],[13.21604,52.55492],[13.21605,52.55503],[13.21604,52.55516],[13.21601,52.55528],[13.21782,52.55532],[13.21796,52.55496],[13.2181,52.55491],[13.21896,52.55477],[13.21899,52.55488],[13.21902,52.55496],[13.21912,52.55504],[13.21919,52.55516],[13.21921,52.55527],[13.21927,52.55554],[13.21933,52.55564],[13.21964,52.55588],[13.21984,52.55601],[13.21994,52.55605],[13.22014,52.55628],[13.2203,52.55646],[13.22069,52.55677],[13.22121,52.55704],[13.2214,52.55721],[13.22145,52.55729],[13.22136,52.55748],[13.22119,52.55764],[13.22116,52.55789],[13.22125,52.55847],[13.22134,52.55871],[13.22147,52.55907],[13.22151,52.55917],[13.22181,52.55952],[13.22196,52.55952],[13.22246,52.56004],[13.22273,52.56006],[13.2231,52.56021],[13.22344,52.56043],[13.22366,52.56038],[13.22383,52.56039],[13.22391,52.56048],[13.22394,52.56057],[13.22392,52.56066],[13.22384,52.56077],[13.22379,52.56088],[13.22375,52.56098],[13.22371,52.56108],[13.2236,52.56117],[13.22355,52.56125],[13.22349,52.56137],[13.22347,52.56147],[13.22351,52.56157],[13.22357,52.56166],[13.22365,52.56175],[13.22375,52.56185],[13.22395,52.56192],[13.22411,52.56198],[13.2242,52.562],[13.2243,52.56203],[13.22522,52.56216],[13.22531,52.56218],[13.22539,52.56221],[13.22549,52.56235],[13.22553,52.56244],[13.22508,52.56251],[13.22482,52.5625],[13.22484,52.56276],[13.22494,52.56277],[13.22559,52.56264],[13.22565,52.56276],[13.22566,52.56284],[13.22576,52.5629],[13.2258,52.56298],[13.2259,52.56308],[13.22595,52.56317],[13.22604,52.56328],[13.22608,52.56336],[13.23118,52.5608],[13.23187,52.56047],[13.23164,52.56028],[13.23139,52.56009],[13.23114,52.56021],[13.23094,52.56029],[13.23069,52.56038],[13.23042,52.56046],[13.23009,52.56054],[13.22963,52.56062],[13.22948,52.56064],[13.22924,52.56067],[13.22887,52.5607],[13.22854,52.5607],[13.22829,52.5607],[13.22804,52.56069],[13.22778,52.56067],[13.22707,52.56057],[13.22697,52.56052],[13.22683,52.56042],[13.22675,52.56038],[13.22663,52.56036],[13.22659,52.56028],[13.22676,52.56023],[13.22716,52.56017],[13.22767,52.56009],[13.22667,52.55954],[13.2257,52.55971],[13.22549,52.55972],[13.22535,52.55965],[13.22512,52.55952],[13.2249,52.55924],[13.22487,52.55909],[13.22494,52.55859],[13.22467,52.55781],[13.22456,52.55782],[13.22443,52.55751],[13.22456,52.55749],[13.22447,52.55724],[13.22434,52.55664],[13.2241,52.55554],[13.2238,52.5556],[13.22368,52.55535],[13.22343,52.5551],[13.22342,52.55493],[13.22345,52.55481],[13.22347,52.55471],[13.22352,52.55454],[13.22354,52.55445],[13.22356,52.55436],[13.22357,52.55428],[13.22358,52.55419],[13.22348,52.55409],[13.22344,52.55349],[13.22355,52.55343],[13.22375,52.5534],[13.22371,52.55332],[13.22364,52.55323],[13.22358,52.55295],[13.22359,52.55287],[13.22359,52.55263],[13.22355,52.55251],[13.22304,52.55233],[13.22308,52.55207],[13.22311,52.55186],[13.22316,52.55155],[13.22318,52.55086],[13.22342,52.55051],[13.22362,52.55026],[13.22366,52.55013],[13.22358,52.55008],[13.22359,52.54994],[13.22368,52.54988],[13.22374,52.54965],[13.22391,52.54893],[13.2238,52.54888],[13.22368,52.5489],[13.2235,52.54889],[13.2232,52.5489],[13.22309,52.54888],[13.22306,52.54875],[13.22314,52.54869],[13.22326,52.54868],[13.2234,52.54869],[13.22356,52.54867],[13.22368,52.54868],[13.22386,52.54864],[13.22394,52.54862],[13.22393,52.5485],[13.22363,52.54774],[13.22372,52.54773],[13.22365,52.54763],[13.22348,52.54742],[13.22349,52.54729],[13.2235,52.54688],[13.22345,52.54676],[13.22333,52.54665],[13.22321,52.54652],[13.2231,52.54645],[13.22283,52.54625],[13.22271,52.54613],[13.22264,52.54599],[13.22263,52.54579],[13.22248,52.5456],[13.22249,52.54548],[13.22293,52.54534],[13.2227,52.54516],[13.22244,52.54518],[13.22191,52.54506],[13.222,52.54498],[13.22183,52.54492],[13.22173,52.54473],[13.22205,52.54467],[13.22212,52.54456],[13.22178,52.54459],[13.22169,52.54449],[13.22205,52.54444],[13.22216,52.54431],[13.22213,52.54411],[13.22197,52.54403],[13.22183,52.54395],[13.22173,52.54378],[13.22155,52.54344],[13.2212,52.54326],[13.2211,52.54322],[13.22118,52.5432],[13.22108,52.54296],[13.22099,52.54289],[13.22076,52.54253],[13.22107,52.54248],[13.22074,52.54235],[13.22046,52.54223],[13.2208,52.54208],[13.22067,52.5418],[13.22069,52.54157],[13.22085,52.54093],[13.22071,52.54092],[13.22047,52.54116],[13.22038,52.54119],[13.22021,52.54092],[13.2201,52.54092],[13.22007,52.54101],[13.22011,52.54114],[13.2201,52.5413],[13.22,52.54134],[13.21962,52.54142],[13.21898,52.54166],[13.21883,52.54162],[13.21874,52.54165],[13.21836,52.54157],[13.21816,52.54139],[13.21729,52.5413],[13.21725,52.54108],[13.21629,52.54102],[13.21604,52.54106],[13.21557,52.54125],[13.21454,52.54177],[13.21455,52.54273],[13.2135,52.54243],[13.21331,52.54273],[13.21309,52.54298],[13.21306,52.54311],[13.2127,52.54322],[13.21243,52.54347],[13.21234,52.54357],[13.2122,52.54357],[13.21206,52.54355],[13.21191,52.54344],[13.2118,52.54333],[13.21175,52.54324],[13.21182,52.54294],[13.21159,52.54285],[13.21139,52.54292],[13.2112,52.5429],[13.21108,52.54286],[13.21082,52.54281],[13.21027,52.54276],[13.20976,52.54285],[13.20944,52.54274],[13.20914,52.5425],[13.20904,52.54222],[13.20902,52.542],[13.20913,52.54148],[13.20918,52.54124],[13.20922,52.54097],[13.20907,52.54125],[13.20902,52.54121]]]}},{"type":"Feature","properties":{"k":"water","n":"Tegeler See"},"geometry":{"type":"Polygon","coordinates":[[[13.27206,52.58892],[13.27243,52.58874],[13.27283,52.5885],[13.27304,52.58831],[13.27313,52.58822],[13.27331,52.58804],[13.27351,52.58781],[13.27379,52.58746],[13.27388,52.58732],[13.2741,52.58701],[13.27421,52.58685],[13.27436,52.58665],[13.27465,52.58625],[13.27532,52.58525],[13.27546,52.58507],[13.27537,52.58496],[13.27471,52.5844],[13.27462,52.58434],[13.27459,52.58424],[13.27466,52.58415],[13.27475,52.5841],[13.27486,52.58409],[13.27489,52.58401],[13.27487,52.58387],[13.27422,52.58277],[13.27409,52.58252],[13.27408,52.5824],[13.27411,52.5822],[13.27415,52.58209],[13.27427,52.58193],[13.27451,52.58179],[13.27468,52.58178],[13.27477,52.58178],[13.27473,52.58153],[13.27443,52.58147],[13.2742,52.58141],[13.27412,52.58136],[13.27392,52.58112],[13.2738,52.5809],[13.2738,52.58075],[13.27372,52.58052],[13.27367,52.58028],[13.27364,52.58005],[13.27362,52.5799],[13.27365,52.57965],[13.27379,52.57932],[13.27387,52.57918],[13.27398,52.57906],[13.2741,52.57895],[13.27423,52.57882],[13.27451,52.57859],[13.27466,52.57849],[13.2748,52.5784],[13.27486,52.57831],[13.27487,52.57822],[13.27485,52.57793],[13.27467,52.57783],[13.27452,52.57782],[13.27432,52.5779],[13.27404,52.57798],[13.2739,52.57801],[13.27373,52.57803],[13.27356,52.57802],[13.27304,52.578],[13.27272,52.57799],[13.27238,52.57797],[13.27205,52.57796],[13.27165,52.57795],[13.27125,52.57794],[13.27083,52.57794],[13.27024,52.57854],[13.26977,52.5787],[13.26966,52.57878],[13.26943,52.57885],[13.26899,52.57877],[13.26882,52.57876],[13.2685,52.57869],[13.26807,52.57859],[13.26789,52.57852],[13.26757,52.57845],[13.26745,52.57836],[13.26726,52.57837],[13.26706,52.57832],[13.26679,52.57811],[13.26662,52.57793],[13.26667,52.57778],[13.26636,52.57761],[13.2662,52.57753],[13.26369,52.57617],[13.2636,52.57611],[13.26358,52.57596],[13.26356,52.57587],[13.26315,52.57578],[13.26318,52.57563],[13.26305,52.57555],[13.26291,52.5756],[13.26196,52.57521],[13.26068,52.57443],[13.26051,52.57425],[13.26038,52.57423],[13.26008,52.57418],[13.2598,52.5741],[13.2596,52.57404],[13.25927,52.57391],[13.25897,52.57375],[13.25883,52.57365],[13.25872,52.57355],[13.25848,52.57325],[13.25842,52.57305],[13.25829,52.57303],[13.25818,52.57293],[13.25812,52.57284],[13.25797,52.57276],[13.25802,52.57267],[13.25811,52.57257],[13.25796,52.57237],[13.25787,52.57225],[13.25784,52.57213],[13.25789,52.57205],[13.25782,52.5718],[13.25773,52.57176],[13.25764,52.57166],[13.25762,52.57149],[13.25765,52.5714],[13.2576,52.57112],[13.25749,52.57094],[13.25739,52.57096],[13.25726,52.57096],[13.25718,52.57091],[13.25711,52.5708],[13.25705,52.57058],[13.25699,52.57035],[13.25703,52.57023],[13.25711,52.5702],[13.25722,52.57019],[13.25734,52.57018],[13.25712,52.56974],[13.25705,52.5696],[13.25687,52.56938],[13.25663,52.5691],[13.25621,52.56869],[13.25593,52.56838],[13.25586,52.56817],[13.25578,52.56804],[13.2556,52.56789],[13.25564,52.56769],[13.25571,52.56745],[13.25578,52.56693],[13.25558,52.56673],[13.25494,52.56656],[13.25449,52.56644],[13.25435,52.5662],[13.25451,52.56607],[13.25441,52.56595],[13.25427,52.56565],[13.2542,52.56546],[13.25371,52.565],[13.25269,52.56498],[13.25239,52.56492],[13.25203,52.56487],[13.25113,52.56427],[13.25061,52.56413],[13.25018,52.56401],[13.25,52.56396],[13.24935,52.56424],[13.24922,52.56417],[13.24901,52.56406],[13.24874,52.56411],[13.24859,52.56427],[13.2483,52.56415],[13.24813,52.56396],[13.24801,52.56392],[13.24798,52.56383],[13.24817,52.56369],[13.24806,52.56362],[13.24786,52.56374],[13.24788,52.56364],[13.2478,52.56347],[13.24787,52.56318],[13.24792,52.56303],[13.24792,52.56289],[13.2477,52.56269],[13.24732,52.56256],[13.24722,52.56243],[13.24708,52.56237],[13.24692,52.56234],[13.2467,52.56234],[13.24648,52.56235],[13.24637,52.56234],[13.24614,52.56232],[13.24601,52.56232],[13.24591,52.56231],[13.24558,52.56236],[13.24512,52.56231],[13.24454,52.56231],[13.24404,52.5623],[13.24382,52.56229],[13.24359,52.56225],[13.24347,52.56221],[13.24336,52.56217],[13.24321,52.56212],[13.24295,52.56202],[13.24273,52.56197],[13.24264,52.56195],[13.24249,52.56202],[13.24224,52.56199],[13.24186,52.56192],[13.24173,52.56189],[13.24165,52.56188],[13.24155,52.5618],[13.24146,52.56175],[13.24136,52.56168],[13.24127,52.56162],[13.24119,52.56151],[13.24109,52.56146],[13.24094,52.56136],[13.24085,52.56131],[13.24077,52.56125],[13.24066,52.56116],[13.24058,52.56107],[13.24051,52.56097],[13.24041,52.56078],[13.24037,52.5607],[13.24031,52.5606],[13.2403,52.5605],[13.24021,52.56042],[13.24007,52.56021],[13.2399,52.56006],[13.23979,52.56001],[13.23954,52.55987],[13.2394,52.55981],[13.23931,52.55978],[13.23921,52.55968],[13.2391,52.55938],[13.23906,52.55924],[13.23886,52.55918],[13.23866,52.55915],[13.23856,52.55914],[13.23842,52.55922],[13.2384,52.55931],[13.23834,52.55942],[13.23823,52.55948],[13.23766,52.55973],[13.23639,52.56015],[13.23622,52.56018],[13.23519,52.56058],[13.23488,52.5607],[13.23455,52.56081],[13.23404,52.56099],[13.23378,52.56109],[13.23361,52.56116],[13.23349,52.56121],[13.23338,52.56124],[13.23326,52.5613],[13.23317,52.56134],[13.23308,52.56137],[13.23298,52.56141],[13.23289,52.56144],[13.2328,52.56146],[13.23267,52.5615],[13.23259,52.56152],[13.23251,52.56155],[13.23241,52.56157],[13.23228,52.5616],[13.23219,52.56162],[13.23209,52.56163],[13.232,52.56166],[13.23191,52.56168],[13.23175,52.56171],[13.23166,52.56171],[13.23155,52.5617],[13.2314,52.56169],[13.23131,52.56168],[13.23123,52.56167],[13.23114,52.56166],[13.23105,52.56166],[13.23095,52.56166],[13.23086,52.56165],[13.23077,52.56162],[13.2307,52.56153],[13.2307,52.56136],[13.23089,52.56107],[13.23118,52.5608],[13.22611,52.5634],[13.22612,52.56349],[13.22604,52.56355],[13.22588,52.56367],[13.22569,52.56374],[13.22553,52.56383],[13.22536,52.56387],[13.22519,52.56397],[13.22515,52.56409],[13.22502,52.56416],[13.22518,52.56449],[13.22526,52.56461],[13.22532,52.5647],[13.22543,52.56477],[13.22554,52.56479],[13.22574,52.56487],[13.22586,52.56497],[13.22594,52.56525],[13.22597,52.56533],[13.22594,52.56554],[13.22607,52.56581],[13.2262,52.56587],[13.22638,52.56597],[13.22667,52.56605],[13.22686,52.56611],[13.22698,52.56615],[13.22709,52.56623],[13.22707,52.5664],[13.22698,52.56654],[13.22675,52.56669],[13.22626,52.56705],[13.22605,52.56731],[13.22597,52.56741],[13.22602,52.56755],[13.22618,52.56768],[13.22781,52.56815],[13.22786,52.56801],[13.22803,52.56799],[13.22875,52.568],[13.22909,52.56804],[13.22923,52.56806],[13.22988,52.56821],[13.23055,52.56838],[13.23084,52.56839],[13.23109,52.5684],[13.23172,52.56834],[13.23213,52.56831],[13.23242,52.56828],[13.23258,52.56829],[13.23284,52.56828],[13.23302,52.56827],[13.23314,52.56826],[13.23329,52.56825],[13.23348,52.56822],[13.23365,52.56819],[13.23377,52.56817],[13.2339,52.56813],[13.234,52.5681],[13.23411,52.56806],[13.2344,52.56797],[13.23458,52.56791],[13.23468,52.56788],[13.23511,52.56774],[13.23557,52.56773],[13.2355,52.56788],[13.2355,52.568],[13.2356,52.56806],[13.23575,52.56815],[13.23599,52.56824],[13.23616,52.56826],[13.23633,52.56826],[13.23664,52.56826],[13.23693,52.5683],[13.23713,52.5684],[13.23753,52.56892],[13.23782,52.56929],[13.23839,52.57004],[13.23896,52.57103],[13.23929,52.5714],[13.23942,52.57187],[13.23954,52.57231],[13.23993,52.57284],[13.24033,52.5731],[13.24048,52.57322],[13.2405,52.57342],[13.24041,52.57359],[13.24041,52.57389],[13.24052,52.57415],[13.24066,52.57424],[13.24107,52.57459],[13.24156,52.57484],[13.24197,52.57494],[13.24268,52.57516],[13.24329,52.57542],[13.2435,52.57554],[13.2436,52.5756],[13.24375,52.57562],[13.24393,52.57563],[13.24405,52.57563],[13.24438,52.57562],[13.24462,52.57559],[13.24493,52.57556],[13.24515,52.57557],[13.24528,52.57553],[13.24537,52.57555],[13.24525,52.57565],[13.24553,52.57565],[13.24553,52.57585],[13.24545,52.57599],[13.24542,52.57609],[13.24541,52.57619],[13.24538,52.57638],[13.24534,52.57655],[13.24524,52.5769],[13.24527,52.57708],[13.24526,52.57724],[13.24528,52.57738],[13.24531,52.57752],[13.24536,52.57762],[13.24551,52.5777],[13.24557,52.57786],[13.24561,52.57797],[13.24574,52.57809],[13.24586,52.57828],[13.24602,52.57855],[13.2462,52.5788],[13.24658,52.57905],[13.24675,52.57922],[13.24668,52.57939],[13.24676,52.5794],[13.24684,52.57944],[13.24687,52.57963],[13.24711,52.57993],[13.24737,52.57997],[13.24754,52.58008],[13.24744,52.58024],[13.24748,52.58033],[13.24756,52.58039],[13.24808,52.58052],[13.24868,52.58066],[13.24939,52.58098],[13.24968,52.58108],[13.25,52.58148],[13.25041,52.58176],[13.25084,52.58197],[13.25112,52.58205],[13.25139,52.58216],[13.25172,52.58235],[13.25222,52.5825],[13.25266,52.58261],[13.25293,52.58264],[13.25316,52.58261],[13.25351,52.58262],[13.25381,52.58278],[13.25405,52.58285],[13.25471,52.58291],[13.25505,52.58308],[13.25549,52.58341],[13.25578,52.58371],[13.25588,52.58387],[13.2559,52.58401],[13.25577,52.58433],[13.25555,52.58499],[13.25555,52.58509],[13.25551,52.58522],[13.25531,52.58533],[13.25533,52.58548],[13.25546,52.58562],[13.25551,52.58577],[13.2555,52.58586],[13.25542,52.58605],[13.2554,52.58622],[13.25546,52.58632],[13.25554,52.58636],[13.25565,52.58653],[13.2559,52.5866],[13.25608,52.5867],[13.25621,52.58675],[13.25692,52.58693],[13.25714,52.58698],[13.25727,52.587],[13.25738,52.587],[13.25763,52.58693],[13.25763,52.58683],[13.25782,52.5867],[13.25815,52.58658],[13.2585,52.5866],[13.25861,52.58658],[13.25878,52.58654],[13.25888,52.58646],[13.25883,52.58634],[13.2587,52.58626],[13.25857,52.58614],[13.25848,52.58593],[13.25834,52.58583],[13.25824,52.58578],[13.25816,52.58574],[13.25818,52.58563],[13.25807,52.58557],[13.25792,52.58533],[13.25791,52.58519],[13.25796,52.58508],[13.25808,52.58496],[13.25823,52.58489],[13.25894,52.58473],[13.25949,52.58462],[13.25968,52.58462],[13.25988,52.58471],[13.26004,52.58484],[13.2602,52.58489],[13.26034,52.58497],[13.26034,52.5851],[13.26021,52.58522],[13.26004,52.58544],[13.25999,52.5857],[13.26005,52.58591],[13.26019,52.5862],[13.26037,52.58651],[13.26054,52.58681],[13.26094,52.5872],[13.2613,52.58752],[13.26171,52.58781],[13.26217,52.58831],[13.26216,52.58848],[13.26198,52.58854],[13.26611,52.58942],[13.26635,52.58939],[13.26695,52.58924],[13.26708,52.58924],[13.26772,52.58942],[13.26792,52.58946],[13.26817,52.58946],[13.26854,52.58952],[13.2687,52.58951],[13.2689,52.58947],[13.26911,52.58946],[13.26931,52.58946],[13.26951,52.58946],[13.26966,52.58946],[13.27012,52.58964],[13.27025,52.58975],[13.27063,52.58992],[13.27072,52.58993],[13.27081,52.58991],[13.27091,52.58991],[13.27116,52.58976],[13.2714,52.58962],[13.271,52.58951],[13.27091,52.58948],[13.2709,52.58939],[13.27118,52.58926],[13.27164,52.58904],[13.27179,52.58898],[13.27219,52.58928],[13.2723,52.58929],[13.27244,52.58923],[13.27206,52.58892]]]}},{"type":"Feature","properties":{"k":"water","n":"Rohrbruchteich"},"geometry":{"type":"Polygon","coordinates":[[[13.23537,52.55125],[13.23528,52.55126],[13.23524,52.55134],[13.23527,52.55143],[13.23535,52.5515],[13.23518,52.55157],[13.23507,52.5516],[13.23495,52.55171],[13.23482,52.55181],[13.23468,52.55188],[13.23452,52.55198],[13.23438,52.55209],[13.23426,52.5521],[13.23409,52.55216],[13.23399,52.55218],[13.23389,52.5522],[13.23372,52.55223],[13.23362,52.55225],[13.23354,52.55229],[13.23344,52.55238],[13.2334,52.55246],[13.23331,52.55264],[13.23336,52.55274],[13.23332,52.55285],[13.23342,52.55299],[13.23353,52.55308],[13.23365,52.55318],[13.23373,52.55326],[13.23381,52.5533],[13.23405,52.55336],[13.2343,52.55336],[13.23438,52.55336],[13.2346,52.5533],[13.23484,52.55324],[13.23501,52.55319],[13.23522,52.55312],[13.23532,52.55308],[13.23546,52.55297],[13.23554,52.55285],[13.23561,52.55263],[13.23565,52.55246],[13.23567,52.55229],[13.23567,52.55211],[13.23566,52.55197],[13.2357,52.55181],[13.2357,52.55168],[13.23569,52.55154],[13.2357,52.55138],[13.23571,52.55127],[13.23572,52.55116],[13.23571,52.551],[13.23569,52.5509],[13.23563,52.55076],[13.23554,52.55075],[13.23546,52.55081],[13.23541,52.5509],[13.2354,52.55103],[13.23537,52.55125]]]}},{"type":"Feature","properties":{"k":"water","n":null},"geometry":{"type":"LineString","coordinates":[[13.20964,52.53702],[13.20974,52.53682],[13.20982,52.53672],[13.20994,52.53667],[13.21002,52.53666],[13.21025,52.53677],[13.21073,52.53681],[13.21159,52.53687],[13.21245,52.53693],[13.21265,52.53683],[13.2131,52.53681],[13.21391,52.53676],[13.21504,52.53668],[13.21541,52.53667],[13.216,52.53663],[13.21865,52.5364],[13.21885,52.53639],[13.219,52.53647],[13.21911,52.53646],[13.21923,52.53637],[13.21931,52.53635],[13.22053,52.53621],[13.22312,52.53591],[13.22507,52.53565],[13.22625,52.53548],[13.22634,52.5355],[13.22684,52.53542],[13.22764,52.5353],[13.22869,52.53511],[13.22877,52.53511],[13.22886,52.53522],[13.22889,52.53514],[13.22897,52.53506],[13.23089,52.53473],[13.23143,52.53464],[13.23136,52.53413],[13.23094,52.53422],[13.22847,52.53464],[13.22494,52.53519],[13.22297,52.53545],[13.22046,52.53574],[13.21853,52.53593],[13.21665,52.53608],[13.21526,52.53618],[13.21436,52.53621],[13.21346,52.53621],[13.20963,52.53601],[13.20906,52.53597],[13.20829,52.53573],[13.20863,52.53616],[13.20884,52.53656],[13.20962,52.53726]]}},{"type":"Feature","properties":{"k":"water","n":null},"geometry":{"type":"LineString","coordinates":[[13.20962,52.53726],[13.20963,52.53718],[13.20964,52.53702]]}}]}